<?xml version='1.0' encoding='UTF-8' standalone='yes' ?><TrainingCenterDatabase creator="Mi Fitness" version="1.0" xmlns="http://www.garmin.com/xmlschemas/TrainingCenterDatabase/v2" xmlns:xsi="http://www.w3.org/2001/XMLSchema-instance" xsi:schemaLocation="http://www.garmin.com/xmlschemas/TrainingCenterDatabase/v2 http://www.garmin.com/xmlschemas/TrainingCenterDatabasev2.xsd"><Activities><Activity Sport=""><Id>2026-06-04T19:21:33.000Z</Id><Calories>16</Calories><Lap><TotalTimeSeconds>113</TotalTimeSeconds><DistanceMeters>113</DistanceMeters><Calories>11</Calories><HeartRateBpm>123</HeartRateBpm><AverageSpeed>3.6</AverageSpeed><Steps>165</Steps><Track><Trackpoint><Time>2026-06-04T19:21:33.000Z</Time><Position><LatitudeDegrees>58.63398742675781</LatitudeDegrees><LongitudeDegrees>59.80299377441406</LongitudeDegrees></Position></Trackpoint><Trackpoint><Time>2026-06-04T19:21:34.000Z</Time><Position><LatitudeDegrees>58.6339810989341</LatitudeDegrees><LongitudeDegrees>59.80299693832592</LongitudeDegrees></Position></Trackpoint><Trackpoint><Time>2026-06-04T19:21:35.000Z</Time><Position><LatitudeDegrees>58.633976358462064</LatitudeDegrees><LongitudeDegrees>59.802994026835556</LongitudeDegrees></Position></Trackpoint><Trackpoint><Time>2026-06-04T19:21:36.000Z</Time><Position><LatitudeDegrees>58.6339712008202</LatitudeDegrees><LongitudeDegrees>59.80298794201633</LongitudeDegrees></Position></Trackpoint><Trackpoint><Time>2026-06-04T19:21:37.000Z</Time><Position><LatitudeDegrees>58.63396630727854</LatitudeDegrees><LongitudeDegrees>59.80297842466726</LongitudeDegrees></Position></Trackpoint><Trackpoint><Time>2026-06-04T19:21:38.000Z</Time><Position><LatitudeDegrees>58.633961646239655</LatitudeDegrees><LongitudeDegrees>59.80296710885053</LongitudeDegrees></Position></Trackpoint><Trackpoint><Time>2026-06-04T19:21:39.000Z</Time><Position><LatitudeDegrees>58.63395617160707</LatitudeDegrees><LongitudeDegrees>59.802955105836816</LongitudeDegrees></Position></Trackpoint><Trackpoint><Time>2026-06-04T19:21:40.000Z</Time><Position><LatitudeDegrees>58.633949599686325</LatitudeDegrees><LongitudeDegrees>59.80294239971463</LongitudeDegrees></Position></Trackpoint><Trackpoint><Time>2026-06-04T19:21:41.000Z</Time><Position><LatitudeDegrees>58.633942445820516</LatitudeDegrees><LongitudeDegrees>59.802928583337355</LongitudeDegrees></Position></Trackpoint><Trackpoint><Time>2026-06-04T19:21:42.000Z</Time><Position><LatitudeDegrees>58.633934501289694</LatitudeDegrees><LongitudeDegrees>59.80291363485971</LongitudeDegrees></Position></Trackpoint><Trackpoint><Time>2026-06-04T19:21:43.000Z</Time><Position><LatitudeDegrees>58.633926272047695</LatitudeDegrees><LongitudeDegrees>59.80289769065611</LongitudeDegrees></Position></Trackpoint><Trackpoint><Time>2026-06-04T19:21:44.000Z</Time><Position><LatitudeDegrees>58.63391800242069</LatitudeDegrees><LongitudeDegrees>59.80288093462831</LongitudeDegrees></Position></Trackpoint><Trackpoint><Time>2026-06-04T19:21:45.000Z</Time><Position><LatitudeDegrees>58.63391028788802</LatitudeDegrees><LongitudeDegrees>59.802863546727345</LongitudeDegrees></Position></Trackpoint><Trackpoint><Time>2026-06-04T19:21:46.000Z</Time><Position><LatitudeDegrees>58.633902812781706</LatitudeDegrees><LongitudeDegrees>59.8028461718325</LongitudeDegrees></Position></Trackpoint><Trackpoint><Time>2026-06-04T19:21:47.000Z</Time><Position><LatitudeDegrees>58.63389590606564</LatitudeDegrees><LongitudeDegrees>59.80282956347062</LongitudeDegrees></Position></Trackpoint><Trackpoint><Time>2026-06-04T19:21:48.000Z</Time><Position><LatitudeDegrees>58.63388914065859</LatitudeDegrees><LongitudeDegrees>59.80281393359209</LongitudeDegrees></Position></Trackpoint><Trackpoint><Time>2026-06-04T19:21:49.000Z</Time><Position><LatitudeDegrees>58.633882812163534</LatitudeDegrees><LongitudeDegrees>59.80279924391254</LongitudeDegrees></Position></Trackpoint><Trackpoint><Time>2026-06-04T19:21:50.000Z</Time><Position><LatitudeDegrees>58.63387600702096</LatitudeDegrees><LongitudeDegrees>59.802784378777005</LongitudeDegrees></Position></Trackpoint><Trackpoint><Time>2026-06-04T19:21:51.000Z</Time><Position><LatitudeDegrees>58.63386938939843</LatitudeDegrees><LongitudeDegrees>59.80276890124617</LongitudeDegrees></Position></Trackpoint><Trackpoint><Time>2026-06-04T19:21:52.000Z</Time><Position><LatitudeDegrees>58.633863208753894</LatitudeDegrees><LongitudeDegrees>59.80275417880698</LongitudeDegrees></Position></Trackpoint><Trackpoint><Time>2026-06-04T19:21:53.000Z</Time><Position><LatitudeDegrees>58.63385702212642</LatitudeDegrees><LongitudeDegrees>59.80273969849966</LongitudeDegrees></Position></Trackpoint><Trackpoint><Time>2026-06-04T19:21:54.000Z</Time><Position><LatitudeDegrees>58.63385064785796</LatitudeDegrees><LongitudeDegrees>59.802725217993256</LongitudeDegrees></Position></Trackpoint><Trackpoint><Time>2026-06-04T19:21:55.000Z</Time><Position><LatitudeDegrees>58.63384403521914</LatitudeDegrees><LongitudeDegrees>59.80271161673468</LongitudeDegrees></Position></Trackpoint><Trackpoint><Time>2026-06-04T19:21:56.000Z</Time><Position><LatitudeDegrees>58.63383670430178</LatitudeDegrees><LongitudeDegrees>59.80269963367</LongitudeDegrees></Position></Trackpoint><Trackpoint><Time>2026-06-04T19:21:57.000Z</Time><Position><LatitudeDegrees>58.63382854965365</LatitudeDegrees><LongitudeDegrees>59.80268838620786</LongitudeDegrees></Position></Trackpoint><Trackpoint><Time>2026-06-04T19:21:58.000Z</Time><Position><LatitudeDegrees>58.6338196335706</LatitudeDegrees><LongitudeDegrees>59.80267692684364</LongitudeDegrees></Position></Trackpoint><Trackpoint><Time>2026-06-04T19:21:59.000Z</Time><Position><LatitudeDegrees>58.63381105865842</LatitudeDegrees><LongitudeDegrees>59.80266538217126</LongitudeDegrees></Position></Trackpoint><Trackpoint><Time>2026-06-04T19:22:00.000Z</Time><Position><LatitudeDegrees>58.63380274560752</LatitudeDegrees><LongitudeDegrees>59.80265381527551</LongitudeDegrees></Position></Trackpoint><Trackpoint><Time>2026-06-04T19:22:01.000Z</Time><Position><LatitudeDegrees>58.63379462814609</LatitudeDegrees><LongitudeDegrees>59.80264225498913</LongitudeDegrees></Position></Trackpoint><Trackpoint><Time>2026-06-04T19:22:02.000Z</Time><Position><LatitudeDegrees>58.633786653877586</LatitudeDegrees><LongitudeDegrees>59.802630222727494</LongitudeDegrees></Position></Trackpoint><Trackpoint><Time>2026-06-04T19:22:03.000Z</Time><Position><LatitudeDegrees>58.63377780362351</LatitudeDegrees><LongitudeDegrees>59.80261660274955</LongitudeDegrees></Position></Trackpoint><Trackpoint><Time>2026-06-04T19:22:04.000Z</Time><Position><LatitudeDegrees>58.6337677700836</LatitudeDegrees><LongitudeDegrees>59.802600649726315</LongitudeDegrees></Position></Trackpoint><Trackpoint><Time>2026-06-04T19:22:05.000Z</Time><Position><LatitudeDegrees>58.63375804740616</LatitudeDegrees><LongitudeDegrees>59.80258186653865</LongitudeDegrees></Position></Trackpoint><Trackpoint><Time>2026-06-04T19:22:06.000Z</Time><Position><LatitudeDegrees>58.633749211032566</LatitudeDegrees><LongitudeDegrees>59.80256237014613</LongitudeDegrees></Position></Trackpoint><Trackpoint><Time>2026-06-04T19:22:07.000Z</Time><Position><LatitudeDegrees>58.63374089458239</LatitudeDegrees><LongitudeDegrees>59.80254312392204</LongitudeDegrees></Position></Trackpoint><Trackpoint><Time>2026-06-04T19:22:08.000Z</Time><Position><LatitudeDegrees>58.63373288043656</LatitudeDegrees><LongitudeDegrees>59.80252498211753</LongitudeDegrees></Position></Trackpoint><Trackpoint><Time>2026-06-04T19:22:09.000Z</Time><Position><LatitudeDegrees>58.633725529782616</LatitudeDegrees><LongitudeDegrees>59.8025076651805</LongitudeDegrees></Position></Trackpoint><Trackpoint><Time>2026-06-04T19:22:10.000Z</Time><Position><LatitudeDegrees>58.633717926990194</LatitudeDegrees><LongitudeDegrees>59.80249242094344</LongitudeDegrees></Position></Trackpoint><Trackpoint><Time>2026-06-04T19:22:11.000Z</Time><Position><LatitudeDegrees>58.63371021694441</LatitudeDegrees><LongitudeDegrees>59.80247851805623</LongitudeDegrees></Position></Trackpoint><Trackpoint><Time>2026-06-04T19:22:12.000Z</Time><Position><LatitudeDegrees>58.63370296269019</LatitudeDegrees><LongitudeDegrees>59.802464014332436</LongitudeDegrees></Position></Trackpoint><Trackpoint><Time>2026-06-04T19:22:13.000Z</Time><Position><LatitudeDegrees>58.633695358386824</LatitudeDegrees><LongitudeDegrees>59.802450145473856</LongitudeDegrees></Position></Trackpoint><Trackpoint><Time>2026-06-04T19:22:14.000Z</Time><Position><LatitudeDegrees>58.633687117090524</LatitudeDegrees><LongitudeDegrees>59.802435870067846</LongitudeDegrees></Position></Trackpoint><Trackpoint><Time>2026-06-04T19:22:15.000Z</Time><Position><LatitudeDegrees>58.63367820238533</LatitudeDegrees><LongitudeDegrees>59.80242179062694</LongitudeDegrees></Position></Trackpoint><Trackpoint><Time>2026-06-04T19:22:16.000Z</Time><Position><LatitudeDegrees>58.63366917531558</LatitudeDegrees><LongitudeDegrees>59.80240813013407</LongitudeDegrees></Position></Trackpoint><Trackpoint><Time>2026-06-04T19:22:17.000Z</Time><Position><LatitudeDegrees>58.6336612605811</LatitudeDegrees><LongitudeDegrees>59.80239443703907</LongitudeDegrees></Position></Trackpoint><Trackpoint><Time>2026-06-04T19:22:18.000Z</Time><Position><LatitudeDegrees>58.63365433017694</LatitudeDegrees><LongitudeDegrees>59.80238052956297</LongitudeDegrees></Position></Trackpoint><Trackpoint><Time>2026-06-04T19:22:19.000Z</Time><Position><LatitudeDegrees>58.63364869465971</LatitudeDegrees><LongitudeDegrees>59.802366849969225</LongitudeDegrees></Position></Trackpoint><Trackpoint><Time>2026-06-04T19:22:20.000Z</Time><Position><LatitudeDegrees>58.63364382611959</LatitudeDegrees><LongitudeDegrees>59.80235306153771</LongitudeDegrees></Position></Trackpoint><Trackpoint><Time>2026-06-04T19:22:21.000Z</Time><Position><LatitudeDegrees>58.633638919094736</LatitudeDegrees><LongitudeDegrees>59.80233708112252</LongitudeDegrees></Position></Trackpoint><Trackpoint><Time>2026-06-04T19:22:22.000Z</Time><Position><LatitudeDegrees>58.633633646808555</LatitudeDegrees><LongitudeDegrees>59.80231931137375</LongitudeDegrees></Position></Trackpoint><Trackpoint><Time>2026-06-04T19:22:23.000Z</Time><Position><LatitudeDegrees>58.63362743195368</LatitudeDegrees><LongitudeDegrees>59.80229965816376</LongitudeDegrees></Position></Trackpoint><Trackpoint><Time>2026-06-04T19:22:24.000Z</Time><Position><LatitudeDegrees>58.63362064736355</LatitudeDegrees><LongitudeDegrees>59.80227881407767</LongitudeDegrees></Position></Trackpoint><Trackpoint><Time>2026-06-04T19:22:25.000Z</Time><Position><LatitudeDegrees>58.633614009318705</LatitudeDegrees><LongitudeDegrees>59.8022581964135</LongitudeDegrees></Position></Trackpoint><Trackpoint><Time>2026-06-04T19:22:26.000Z</Time><Position><LatitudeDegrees>58.63360730438786</LatitudeDegrees><LongitudeDegrees>59.80223884941155</LongitudeDegrees></Position></Trackpoint><Trackpoint><Time>2026-06-04T19:22:27.000Z</Time><Position><LatitudeDegrees>58.633600453257614</LatitudeDegrees><LongitudeDegrees>59.80222201925848</LongitudeDegrees></Position></Trackpoint><Trackpoint><Time>2026-06-04T19:22:28.000Z</Time><Position><LatitudeDegrees>58.63359344202854</LatitudeDegrees><LongitudeDegrees>59.802209364973606</LongitudeDegrees></Position></Trackpoint><Trackpoint><Time>2026-06-04T19:22:29.000Z</Time><Position><LatitudeDegrees>58.63358628552483</LatitudeDegrees><LongitudeDegrees>59.80220103383005</LongitudeDegrees></Position></Trackpoint><Trackpoint><Time>2026-06-04T19:22:30.000Z</Time><Position><LatitudeDegrees>58.633578029276116</LatitudeDegrees><LongitudeDegrees>59.80219702122178</LongitudeDegrees></Position></Trackpoint><Trackpoint><Time>2026-06-04T19:22:31.000Z</Time><Position><LatitudeDegrees>58.63356842135028</LatitudeDegrees><LongitudeDegrees>59.802196770974405</LongitudeDegrees></Position></Trackpoint><Trackpoint><Time>2026-06-04T19:22:32.000Z</Time><Position><LatitudeDegrees>58.63355900031086</LatitudeDegrees><LongitudeDegrees>59.80219810231158</LongitudeDegrees></Position></Trackpoint><Trackpoint><Time>2026-06-04T19:22:33.000Z</Time><Position><LatitudeDegrees>58.63355135502425</LatitudeDegrees><LongitudeDegrees>59.80220040373352</LongitudeDegrees></Position></Trackpoint><Trackpoint><Time>2026-06-04T19:22:34.000Z</Time><Position><LatitudeDegrees>58.63354495036732</LatitudeDegrees><LongitudeDegrees>59.80220583937441</LongitudeDegrees></Position></Trackpoint><Trackpoint><Time>2026-06-04T19:22:35.000Z</Time><Position><LatitudeDegrees>58.63354229139397</LatitudeDegrees><LongitudeDegrees>59.80220727678733</LongitudeDegrees></Position></Trackpoint><Trackpoint><Time>2026-06-04T19:22:36.000Z</Time><Position><LatitudeDegrees>58.633540554737095</LatitudeDegrees><LongitudeDegrees>59.80220991319658</LongitudeDegrees></Position></Trackpoint><Trackpoint><Time>2026-06-04T19:22:37.000Z</Time><Position><LatitudeDegrees>58.63353844159695</LatitudeDegrees><LongitudeDegrees>59.80221368423461</LongitudeDegrees></Position></Trackpoint><Trackpoint><Time>2026-06-04T19:22:38.000Z</Time><Position><LatitudeDegrees>58.63353150083418</LatitudeDegrees><LongitudeDegrees>59.802225530235795</LongitudeDegrees></Position></Trackpoint><Trackpoint><Time>2026-06-04T19:22:39.000Z</Time><Position><LatitudeDegrees>58.63353425031209</LatitudeDegrees><LongitudeDegrees>59.8022200778395</LongitudeDegrees></Position></Trackpoint><Trackpoint><Time>2026-06-04T19:22:45.000Z</Time><Position><LatitudeDegrees>58.63352899777397</LatitudeDegrees><LongitudeDegrees>59.802227029263165</LongitudeDegrees></Position></Trackpoint><Trackpoint><Time>2026-06-04T19:22:46.000Z</Time><Position><LatitudeDegrees>58.633521036261996</LatitudeDegrees><LongitudeDegrees>59.80223932583657</LongitudeDegrees></Position></Trackpoint><Trackpoint><Time>2026-06-04T19:22:47.000Z</Time><Position><LatitudeDegrees>58.633518383481025</LatitudeDegrees><LongitudeDegrees>59.8022436574965</LongitudeDegrees></Position></Trackpoint><Trackpoint><Time>2026-06-04T19:22:48.000Z</Time><Position><LatitudeDegrees>58.63351482181262</LatitudeDegrees><LongitudeDegrees>59.80225016060353</LongitudeDegrees></Position></Trackpoint><Trackpoint><Time>2026-06-04T19:22:49.000Z</Time><Position><LatitudeDegrees>58.63351036374757</LatitudeDegrees><LongitudeDegrees>59.80225917137403</LongitudeDegrees></Position></Trackpoint><Trackpoint><Time>2026-06-04T19:22:50.000Z</Time><Position><LatitudeDegrees>58.63350512948115</LatitudeDegrees><LongitudeDegrees>59.80226903758647</LongitudeDegrees></Position></Trackpoint><Trackpoint><Time>2026-06-04T19:22:51.000Z</Time><Position><LatitudeDegrees>58.63349926813806</LatitudeDegrees><LongitudeDegrees>59.802278969006224</LongitudeDegrees></Position></Trackpoint><Trackpoint><Time>2026-06-04T19:22:52.000Z</Time><Position><LatitudeDegrees>58.63349243200654</LatitudeDegrees><LongitudeDegrees>59.802288631819074</LongitudeDegrees></Position></Trackpoint><Trackpoint><Time>2026-06-04T19:22:53.000Z</Time><Position><LatitudeDegrees>58.63348509261053</LatitudeDegrees><LongitudeDegrees>59.80229792302448</LongitudeDegrees></Position></Trackpoint><Trackpoint><Time>2026-06-04T19:22:54.000Z</Time><Position><LatitudeDegrees>58.63347603990069</LatitudeDegrees><LongitudeDegrees>59.80230782711988</LongitudeDegrees></Position></Trackpoint><Trackpoint><Time>2026-06-04T19:22:55.000Z</Time><Position><LatitudeDegrees>58.63346695388207</LatitudeDegrees><LongitudeDegrees>59.80231769166941</LongitudeDegrees></Position></Trackpoint><Trackpoint><Time>2026-06-04T19:22:56.000Z</Time><Position><LatitudeDegrees>58.63345804110128</LatitudeDegrees><LongitudeDegrees>59.80232725305386</LongitudeDegrees></Position></Trackpoint><Trackpoint><Time>2026-06-04T19:22:57.000Z</Time><Position><LatitudeDegrees>58.63344936438629</LatitudeDegrees><LongitudeDegrees>59.80233595200623</LongitudeDegrees></Position></Trackpoint><Trackpoint><Time>2026-06-04T19:22:58.000Z</Time><Position><LatitudeDegrees>58.63344140892367</LatitudeDegrees><LongitudeDegrees>59.80234415850418</LongitudeDegrees></Position></Trackpoint><Trackpoint><Time>2026-06-04T19:22:59.000Z</Time><Position><LatitudeDegrees>58.63343428195781</LatitudeDegrees><LongitudeDegrees>59.802351598512</LongitudeDegrees></Position></Trackpoint><Trackpoint><Time>2026-06-04T19:23:00.000Z</Time><Position><LatitudeDegrees>58.633426452487335</LatitudeDegrees><LongitudeDegrees>59.80235972638236</LongitudeDegrees></Position></Trackpoint><Trackpoint><Time>2026-06-04T19:23:01.000Z</Time><Position><LatitudeDegrees>58.63341835938148</LatitudeDegrees><LongitudeDegrees>59.802367583948225</LongitudeDegrees></Position></Trackpoint><Trackpoint><Time>2026-06-04T19:23:02.000Z</Time><Position><LatitudeDegrees>58.63340923799719</LatitudeDegrees><LongitudeDegrees>59.80237530090824</LongitudeDegrees></Position></Trackpoint><Trackpoint><Time>2026-06-04T19:23:03.000Z</Time><Position><LatitudeDegrees>58.63339939501757</LatitudeDegrees><LongitudeDegrees>59.80238294872317</LongitudeDegrees></Position></Trackpoint><Trackpoint><Time>2026-06-04T19:23:04.000Z</Time><Position><LatitudeDegrees>58.633389538971215</LatitudeDegrees><LongitudeDegrees>59.80239105530824</LongitudeDegrees></Position></Trackpoint><Trackpoint><Time>2026-06-04T19:23:05.000Z</Time><Position><LatitudeDegrees>58.63337996333094</LatitudeDegrees><LongitudeDegrees>59.80240026880471</LongitudeDegrees></Position></Trackpoint><Trackpoint><Time>2026-06-04T19:23:06.000Z</Time><Position><LatitudeDegrees>58.63337026335831</LatitudeDegrees><LongitudeDegrees>59.80241071406836</LongitudeDegrees></Position></Trackpoint><Trackpoint><Time>2026-06-04T19:23:07.000Z</Time><Position><LatitudeDegrees>58.633360288326415</LatitudeDegrees><LongitudeDegrees>59.80242228442351</LongitudeDegrees></Position></Trackpoint><Trackpoint><Time>2026-06-04T19:23:09.000Z</Time><Position><LatitudeDegrees>58.63334952185371</LatitudeDegrees><LongitudeDegrees>59.80243479153376</LongitudeDegrees></Position></Trackpoint></Track></Lap></Activity></Activities></TrainingCenterDatabase>