<?xml version='1.0' encoding='UTF-8' standalone='yes' ?><TrainingCenterDatabase creator="Mi Fitness" version="1.0" xmlns="http://www.garmin.com/xmlschemas/TrainingCenterDatabase/v2" xmlns:xsi="http://www.w3.org/2001/XMLSchema-instance" xsi:schemaLocation="http://www.garmin.com/xmlschemas/TrainingCenterDatabase/v2 http://www.garmin.com/xmlschemas/TrainingCenterDatabasev2.xsd"><Activities><Activity Sport=""><Id>2026-08-04T20:22:27.000Z</Id><Calories>83</Calories><Lap><TotalTimeSeconds>633</TotalTimeSeconds><DistanceMeters>633</DistanceMeters><Calories>49</Calories><HeartRateBpm>93</HeartRateBpm><AverageSpeed>3.6</AverageSpeed><Steps>866</Steps><Track><Trackpoint><Time>2026-08-04T20:27:42.000Z</Time><Position><LatitudeDegrees>56.82779312133789</LatitudeDegrees><LongitudeDegrees>60.60382843017578</LongitudeDegrees></Position></Trackpoint><Trackpoint><Time>2026-08-04T20:27:43.000Z</Time><Position><LatitudeDegrees>56.827770973954884</LatitudeDegrees><LongitudeDegrees>60.60380944670463</LongitudeDegrees></Position></Trackpoint><Trackpoint><Time>2026-08-04T20:27:44.000Z</Time><Position><LatitudeDegrees>56.827770227481906</LatitudeDegrees><LongitudeDegrees>60.60380790143184</LongitudeDegrees></Position></Trackpoint><Trackpoint><Time>2026-08-04T20:27:45.000Z</Time><Position><LatitudeDegrees>56.827772090185604</LatitudeDegrees><LongitudeDegrees>60.6038051192823</LongitudeDegrees></Position></Trackpoint><Trackpoint><Time>2026-08-04T20:27:46.000Z</Time><Position><LatitudeDegrees>56.827774102485336</LatitudeDegrees><LongitudeDegrees>60.60380203789747</LongitudeDegrees></Position></Trackpoint><Trackpoint><Time>2026-08-04T20:27:47.000Z</Time><Position><LatitudeDegrees>56.82777588410541</LatitudeDegrees><LongitudeDegrees>60.60379877124365</LongitudeDegrees></Position></Trackpoint><Trackpoint><Time>2026-08-04T20:27:48.000Z</Time><Position><LatitudeDegrees>56.82777936559522</LatitudeDegrees><LongitudeDegrees>60.60379431323172</LongitudeDegrees></Position></Trackpoint><Trackpoint><Time>2026-08-04T20:27:49.000Z</Time><Position><LatitudeDegrees>56.8277805645439</LatitudeDegrees><LongitudeDegrees>60.60379203209702</LongitudeDegrees></Position></Trackpoint><Trackpoint><Time>2026-08-04T20:27:50.000Z</Time><Position><LatitudeDegrees>56.82778267672584</LatitudeDegrees><LongitudeDegrees>60.60378840986669</LongitudeDegrees></Position></Trackpoint><Trackpoint><Time>2026-08-04T20:27:51.000Z</Time><Position><LatitudeDegrees>56.82778488794209</LatitudeDegrees><LongitudeDegrees>60.603782745583175</LongitudeDegrees></Position></Trackpoint><Trackpoint><Time>2026-08-04T20:27:52.000Z</Time><Position><LatitudeDegrees>56.82778685529149</LatitudeDegrees><LongitudeDegrees>60.603775502602446</LongitudeDegrees></Position></Trackpoint><Trackpoint><Time>2026-08-04T20:27:53.000Z</Time><Position><LatitudeDegrees>56.82778797983141</LatitudeDegrees><LongitudeDegrees>60.603766092080186</LongitudeDegrees></Position></Trackpoint><Trackpoint><Time>2026-08-04T20:27:54.000Z</Time><Position><LatitudeDegrees>56.82778910287824</LatitudeDegrees><LongitudeDegrees>60.60375650821992</LongitudeDegrees></Position></Trackpoint><Trackpoint><Time>2026-08-04T20:27:55.000Z</Time><Position><LatitudeDegrees>56.82779008114624</LatitudeDegrees><LongitudeDegrees>60.603745635020736</LongitudeDegrees></Position></Trackpoint><Trackpoint><Time>2026-08-04T20:27:56.000Z</Time><Position><LatitudeDegrees>56.82779038460406</LatitudeDegrees><LongitudeDegrees>60.6037346473002</LongitudeDegrees></Position></Trackpoint><Trackpoint><Time>2026-08-04T20:27:57.000Z</Time><Position><LatitudeDegrees>56.827789391985</LatitudeDegrees><LongitudeDegrees>60.60372404347949</LongitudeDegrees></Position></Trackpoint><Trackpoint><Time>2026-08-04T20:27:58.000Z</Time><Position><LatitudeDegrees>56.82778750340029</LatitudeDegrees><LongitudeDegrees>60.60371397953048</LongitudeDegrees></Position></Trackpoint><Trackpoint><Time>2026-08-04T20:27:59.000Z</Time><Position><LatitudeDegrees>56.827784998617034</LatitudeDegrees><LongitudeDegrees>60.603703960779775</LongitudeDegrees></Position></Trackpoint><Trackpoint><Time>2026-08-04T20:28:00.000Z</Time><Position><LatitudeDegrees>56.82778207193837</LatitudeDegrees><LongitudeDegrees>60.603693777703825</LongitudeDegrees></Position></Trackpoint><Trackpoint><Time>2026-08-04T20:28:01.000Z</Time><Position><LatitudeDegrees>56.82777836792285</LatitudeDegrees><LongitudeDegrees>60.603683365104345</LongitudeDegrees></Position></Trackpoint><Trackpoint><Time>2026-08-04T20:28:02.000Z</Time><Position><LatitudeDegrees>56.82777432956855</LatitudeDegrees><LongitudeDegrees>60.60367174636781</LongitudeDegrees></Position></Trackpoint><Trackpoint><Time>2026-08-04T20:28:03.000Z</Time><Position><LatitudeDegrees>56.827770182228505</LatitudeDegrees><LongitudeDegrees>60.60365965331944</LongitudeDegrees></Position></Trackpoint><Trackpoint><Time>2026-08-04T20:28:04.000Z</Time><Position><LatitudeDegrees>56.827765543088084</LatitudeDegrees><LongitudeDegrees>60.60364695861567</LongitudeDegrees></Position></Trackpoint><Trackpoint><Time>2026-08-04T20:28:05.000Z</Time><Position><LatitudeDegrees>56.82776080722392</LatitudeDegrees><LongitudeDegrees>60.60363270781245</LongitudeDegrees></Position></Trackpoint><Trackpoint><Time>2026-08-04T20:28:06.000Z</Time><Position><LatitudeDegrees>56.82775614975606</LatitudeDegrees><LongitudeDegrees>60.60361621795029</LongitudeDegrees></Position></Trackpoint><Trackpoint><Time>2026-08-04T20:28:07.000Z</Time><Position><LatitudeDegrees>56.82775114313214</LatitudeDegrees><LongitudeDegrees>60.60359896397537</LongitudeDegrees></Position></Trackpoint><Trackpoint><Time>2026-08-04T20:28:08.000Z</Time><Position><LatitudeDegrees>56.82774614569609</LatitudeDegrees><LongitudeDegrees>60.60358116178181</LongitudeDegrees></Position></Trackpoint><Trackpoint><Time>2026-08-04T20:28:09.000Z</Time><Position><LatitudeDegrees>56.827741303846636</LatitudeDegrees><LongitudeDegrees>60.60356297064502</LongitudeDegrees></Position></Trackpoint><Trackpoint><Time>2026-08-04T20:28:10.000Z</Time><Position><LatitudeDegrees>56.82773665790637</LatitudeDegrees><LongitudeDegrees>60.603543526858985</LongitudeDegrees></Position></Trackpoint><Trackpoint><Time>2026-08-04T20:28:11.000Z</Time><Position><LatitudeDegrees>56.827732199336815</LatitudeDegrees><LongitudeDegrees>60.60352410432824</LongitudeDegrees></Position></Trackpoint><Trackpoint><Time>2026-08-04T20:28:12.000Z</Time><Position><LatitudeDegrees>56.82772741096218</LatitudeDegrees><LongitudeDegrees>60.60350473535045</LongitudeDegrees></Position></Trackpoint><Trackpoint><Time>2026-08-04T20:28:13.000Z</Time><Position><LatitudeDegrees>56.82772261173284</LatitudeDegrees><LongitudeDegrees>60.603483957521576</LongitudeDegrees></Position></Trackpoint><Trackpoint><Time>2026-08-04T20:28:14.000Z</Time><Position><LatitudeDegrees>56.82771793439636</LatitudeDegrees><LongitudeDegrees>60.6034618390094</LongitudeDegrees></Position></Trackpoint><Trackpoint><Time>2026-08-04T20:28:15.000Z</Time><Position><LatitudeDegrees>56.82771341797787</LatitudeDegrees><LongitudeDegrees>60.603439559183585</LongitudeDegrees></Position></Trackpoint><Trackpoint><Time>2026-08-04T20:28:16.000Z</Time><Position><LatitudeDegrees>56.827709057895625</LatitudeDegrees><LongitudeDegrees>60.603417624452256</LongitudeDegrees></Position></Trackpoint><Trackpoint><Time>2026-08-04T20:28:17.000Z</Time><Position><LatitudeDegrees>56.82770532180782</LatitudeDegrees><LongitudeDegrees>60.60339668868943</LongitudeDegrees></Position></Trackpoint><Trackpoint><Time>2026-08-04T20:28:18.000Z</Time><Position><LatitudeDegrees>56.827701343001706</LatitudeDegrees><LongitudeDegrees>60.60337542413427</LongitudeDegrees></Position></Trackpoint><Trackpoint><Time>2026-08-04T20:28:20.000Z</Time><Position><LatitudeDegrees>56.82769777490984</LatitudeDegrees><LongitudeDegrees>60.60335430539184</LongitudeDegrees></Position></Trackpoint><Trackpoint><Time>2026-08-04T20:28:21.000Z</Time><Position><LatitudeDegrees>56.82769483392299</LatitudeDegrees><LongitudeDegrees>60.60333350920547</LongitudeDegrees></Position></Trackpoint><Trackpoint><Time>2026-08-04T20:28:22.000Z</Time><Position><LatitudeDegrees>56.82769154944887</LatitudeDegrees><LongitudeDegrees>60.603313556575</LongitudeDegrees></Position></Trackpoint><Trackpoint><Time>2026-08-04T20:28:23.000Z</Time><Position><LatitudeDegrees>56.8276880554619</LatitudeDegrees><LongitudeDegrees>60.60329504340705</LongitudeDegrees></Position></Trackpoint><Trackpoint><Time>2026-08-04T20:28:24.000Z</Time><Position><LatitudeDegrees>56.827684923638486</LatitudeDegrees><LongitudeDegrees>60.60327803036298</LongitudeDegrees></Position></Trackpoint><Trackpoint><Time>2026-08-04T20:28:25.000Z</Time><Position><LatitudeDegrees>56.82768185332028</LatitudeDegrees><LongitudeDegrees>60.60326186027593</LongitudeDegrees></Position></Trackpoint><Trackpoint><Time>2026-08-04T20:28:26.000Z</Time><Position><LatitudeDegrees>56.82767871279204</LatitudeDegrees><LongitudeDegrees>60.6032461543104</LongitudeDegrees></Position></Trackpoint><Trackpoint><Time>2026-08-04T20:28:27.000Z</Time><Position><LatitudeDegrees>56.8276754568204</LatitudeDegrees><LongitudeDegrees>60.60322971765878</LongitudeDegrees></Position></Trackpoint><Trackpoint><Time>2026-08-04T20:28:28.000Z</Time><Position><LatitudeDegrees>56.827672081593725</LatitudeDegrees><LongitudeDegrees>60.60321313126313</LongitudeDegrees></Position></Trackpoint><Trackpoint><Time>2026-08-04T20:28:29.000Z</Time><Position><LatitudeDegrees>56.82766860084846</LatitudeDegrees><LongitudeDegrees>60.6031966535942</LongitudeDegrees></Position></Trackpoint><Trackpoint><Time>2026-08-04T20:28:30.000Z</Time><Position><LatitudeDegrees>56.82766552339552</LatitudeDegrees><LongitudeDegrees>60.60318086675456</LongitudeDegrees></Position></Trackpoint><Trackpoint><Time>2026-08-04T20:28:31.000Z</Time><Position><LatitudeDegrees>56.82766202779698</LatitudeDegrees><LongitudeDegrees>60.60316592180657</LongitudeDegrees></Position></Trackpoint><Trackpoint><Time>2026-08-04T20:28:32.000Z</Time><Position><LatitudeDegrees>56.82765733981507</LatitudeDegrees><LongitudeDegrees>60.60315177290723</LongitudeDegrees></Position></Trackpoint><Trackpoint><Time>2026-08-04T20:28:33.000Z</Time><Position><LatitudeDegrees>56.827652272854685</LatitudeDegrees><LongitudeDegrees>60.603139278226465</LongitudeDegrees></Position></Trackpoint><Trackpoint><Time>2026-08-04T20:28:34.000Z</Time><Position><LatitudeDegrees>56.827646720933785</LatitudeDegrees><LongitudeDegrees>60.60312857887081</LongitudeDegrees></Position></Trackpoint><Trackpoint><Time>2026-08-04T20:28:35.000Z</Time><Position><LatitudeDegrees>56.82764168187062</LatitudeDegrees><LongitudeDegrees>60.60311950252538</LongitudeDegrees></Position></Trackpoint><Trackpoint><Time>2026-08-04T20:28:36.000Z</Time><Position><LatitudeDegrees>56.827637011164875</LatitudeDegrees><LongitudeDegrees>60.603113238746126</LongitudeDegrees></Position></Trackpoint><Trackpoint><Time>2026-08-04T20:28:37.000Z</Time><Position><LatitudeDegrees>56.827632602028395</LatitudeDegrees><LongitudeDegrees>60.60310893722199</LongitudeDegrees></Position></Trackpoint><Trackpoint><Time>2026-08-04T20:28:38.000Z</Time><Position><LatitudeDegrees>56.82762217515158</LatitudeDegrees><LongitudeDegrees>60.603099360540746</LongitudeDegrees></Position></Trackpoint><Trackpoint><Time>2026-08-04T20:28:39.000Z</Time><Position><LatitudeDegrees>56.827627305895355</LatitudeDegrees><LongitudeDegrees>60.60310409682728</LongitudeDegrees></Position></Trackpoint><Trackpoint><Time>2026-08-04T20:28:40.000Z</Time><Position><LatitudeDegrees>56.82762241601185</LatitudeDegrees><LongitudeDegrees>60.60310008601996</LongitudeDegrees></Position></Trackpoint><Trackpoint><Time>2026-08-04T20:28:41.000Z</Time><Position><LatitudeDegrees>56.82761734182336</LatitudeDegrees><LongitudeDegrees>60.60309644203481</LongitudeDegrees></Position></Trackpoint><Trackpoint><Time>2026-08-04T20:28:42.000Z</Time><Position><LatitudeDegrees>56.82761137416448</LatitudeDegrees><LongitudeDegrees>60.60309341681925</LongitudeDegrees></Position></Trackpoint><Trackpoint><Time>2026-08-04T20:28:43.000Z</Time><Position><LatitudeDegrees>56.82760580448469</LatitudeDegrees><LongitudeDegrees>60.60309152432609</LongitudeDegrees></Position></Trackpoint><Trackpoint><Time>2026-08-04T20:28:44.000Z</Time><Position><LatitudeDegrees>56.82760160317654</LatitudeDegrees><LongitudeDegrees>60.603091320445664</LongitudeDegrees></Position></Trackpoint><Trackpoint><Time>2026-08-04T20:28:45.000Z</Time><Position><LatitudeDegrees>56.82759801503039</LatitudeDegrees><LongitudeDegrees>60.60309134854939</LongitudeDegrees></Position></Trackpoint><Trackpoint><Time>2026-08-04T20:28:46.000Z</Time><Position><LatitudeDegrees>56.827593671106065</LatitudeDegrees><LongitudeDegrees>60.603090978974244</LongitudeDegrees></Position></Trackpoint><Trackpoint><Time>2026-08-04T20:28:47.000Z</Time><Position><LatitudeDegrees>56.82758908385258</LatitudeDegrees><LongitudeDegrees>60.603090003445466</LongitudeDegrees></Position></Trackpoint><Trackpoint><Time>2026-08-04T20:28:48.000Z</Time><Position><LatitudeDegrees>56.82758400593383</LatitudeDegrees><LongitudeDegrees>60.60308939318303</LongitudeDegrees></Position></Trackpoint><Trackpoint><Time>2026-08-04T20:28:49.000Z</Time><Position><LatitudeDegrees>56.82757839846471</LatitudeDegrees><LongitudeDegrees>60.60308901167573</LongitudeDegrees></Position></Trackpoint><Trackpoint><Time>2026-08-04T20:28:50.000Z</Time><Position><LatitudeDegrees>56.82757231339802</LatitudeDegrees><LongitudeDegrees>60.60308926295391</LongitudeDegrees></Position></Trackpoint><Trackpoint><Time>2026-08-04T20:28:51.000Z</Time><Position><LatitudeDegrees>56.82756534381797</LatitudeDegrees><LongitudeDegrees>60.6030902321937</LongitudeDegrees></Position></Trackpoint><Trackpoint><Time>2026-08-04T20:28:52.000Z</Time><Position><LatitudeDegrees>56.827557925279635</LatitudeDegrees><LongitudeDegrees>60.60309235193481</LongitudeDegrees></Position></Trackpoint><Trackpoint><Time>2026-08-04T20:28:53.000Z</Time><Position><LatitudeDegrees>56.82755078439284</LatitudeDegrees><LongitudeDegrees>60.6030956526464</LongitudeDegrees></Position></Trackpoint><Trackpoint><Time>2026-08-04T20:28:54.000Z</Time><Position><LatitudeDegrees>56.82754418476361</LatitudeDegrees><LongitudeDegrees>60.60310097452216</LongitudeDegrees></Position></Trackpoint><Trackpoint><Time>2026-08-04T20:28:55.000Z</Time><Position><LatitudeDegrees>56.82753816548409</LatitudeDegrees><LongitudeDegrees>60.60310938338973</LongitudeDegrees></Position></Trackpoint><Trackpoint><Time>2026-08-04T20:28:56.000Z</Time><Position><LatitudeDegrees>56.82753315777735</LatitudeDegrees><LongitudeDegrees>60.60312043237115</LongitudeDegrees></Position></Trackpoint><Trackpoint><Time>2026-08-04T20:28:57.000Z</Time><Position><LatitudeDegrees>56.827528719790976</LatitudeDegrees><LongitudeDegrees>60.603133108961934</LongitudeDegrees></Position></Trackpoint><Trackpoint><Time>2026-08-04T20:28:58.000Z</Time><Position><LatitudeDegrees>56.82752508604327</LatitudeDegrees><LongitudeDegrees>60.603147766499006</LongitudeDegrees></Position></Trackpoint><Trackpoint><Time>2026-08-04T20:28:59.000Z</Time><Position><LatitudeDegrees>56.82752127067266</LatitudeDegrees><LongitudeDegrees>60.6031633170256</LongitudeDegrees></Position></Trackpoint><Trackpoint><Time>2026-08-04T20:29:00.000Z</Time><Position><LatitudeDegrees>56.82751689097948</LatitudeDegrees><LongitudeDegrees>60.603178708260366</LongitudeDegrees></Position></Trackpoint><Trackpoint><Time>2026-08-04T20:29:01.000Z</Time><Position><LatitudeDegrees>56.82751235139582</LatitudeDegrees><LongitudeDegrees>60.603193037673</LongitudeDegrees></Position></Trackpoint><Trackpoint><Time>2026-08-04T20:29:02.000Z</Time><Position><LatitudeDegrees>56.82750734939137</LatitudeDegrees><LongitudeDegrees>60.60320558024408</LongitudeDegrees></Position></Trackpoint><Trackpoint><Time>2026-08-04T20:29:03.000Z</Time><Position><LatitudeDegrees>56.827501330114465</LatitudeDegrees><LongitudeDegrees>60.6032157771142</LongitudeDegrees></Position></Trackpoint><Trackpoint><Time>2026-08-04T20:29:04.000Z</Time><Position><LatitudeDegrees>56.8274951748453</LatitudeDegrees><LongitudeDegrees>60.60322369919361</LongitudeDegrees></Position></Trackpoint><Trackpoint><Time>2026-08-04T20:29:05.000Z</Time><Position><LatitudeDegrees>56.827488774368234</LatitudeDegrees><LongitudeDegrees>60.60322966765145</LongitudeDegrees></Position></Trackpoint><Trackpoint><Time>2026-08-04T20:29:06.000Z</Time><Position><LatitudeDegrees>56.82748211517667</LatitudeDegrees><LongitudeDegrees>60.603233575889625</LongitudeDegrees></Position></Trackpoint><Trackpoint><Time>2026-08-04T20:29:07.000Z</Time><Position><LatitudeDegrees>56.8274757145244</LatitudeDegrees><LongitudeDegrees>60.603234665212334</LongitudeDegrees></Position></Trackpoint><Trackpoint><Time>2026-08-04T20:29:08.000Z</Time><Position><LatitudeDegrees>56.82747024186125</LatitudeDegrees><LongitudeDegrees>60.60323347457749</LongitudeDegrees></Position></Trackpoint><Trackpoint><Time>2026-08-04T20:29:09.000Z</Time><Position><LatitudeDegrees>56.827465853782996</LatitudeDegrees><LongitudeDegrees>60.603230518575046</LongitudeDegrees></Position></Trackpoint><Trackpoint><Time>2026-08-04T20:29:10.000Z</Time><Position><LatitudeDegrees>56.82746146853059</LatitudeDegrees><LongitudeDegrees>60.603221961932064</LongitudeDegrees></Position></Trackpoint><Trackpoint><Time>2026-08-04T20:29:11.000Z</Time><Position><LatitudeDegrees>56.82745917176302</LatitudeDegrees><LongitudeDegrees>60.60321927571982</LongitudeDegrees></Position></Trackpoint><Trackpoint><Time>2026-08-04T20:29:12.000Z</Time><Position><LatitudeDegrees>56.8274570228442</LatitudeDegrees><LongitudeDegrees>60.60321409891628</LongitudeDegrees></Position></Trackpoint><Trackpoint><Time>2026-08-04T20:29:13.000Z</Time><Position><LatitudeDegrees>56.82745521062491</LatitudeDegrees><LongitudeDegrees>60.603207581617845</LongitudeDegrees></Position></Trackpoint><Trackpoint><Time>2026-08-04T20:29:14.000Z</Time><Position><LatitudeDegrees>56.82745376966531</LatitudeDegrees><LongitudeDegrees>60.603199879912445</LongitudeDegrees></Position></Trackpoint><Trackpoint><Time>2026-08-04T20:29:15.000Z</Time><Position><LatitudeDegrees>56.82745266654782</LatitudeDegrees><LongitudeDegrees>60.60319169970975</LongitudeDegrees></Position></Trackpoint><Trackpoint><Time>2026-08-04T20:29:16.000Z</Time><Position><LatitudeDegrees>56.827451354537814</LatitudeDegrees><LongitudeDegrees>60.60318290353068</LongitudeDegrees></Position></Trackpoint><Trackpoint><Time>2026-08-04T20:29:17.000Z</Time><Position><LatitudeDegrees>56.8274501248934</LatitudeDegrees><LongitudeDegrees>60.603173513816415</LongitudeDegrees></Position></Trackpoint><Trackpoint><Time>2026-08-04T20:29:18.000Z</Time><Position><LatitudeDegrees>56.82744908699289</LatitudeDegrees><LongitudeDegrees>60.603164595209556</LongitudeDegrees></Position></Trackpoint><Trackpoint><Time>2026-08-04T20:29:19.000Z</Time><Position><LatitudeDegrees>56.82744826127187</LatitudeDegrees><LongitudeDegrees>60.60315603608889</LongitudeDegrees></Position></Trackpoint><Trackpoint><Time>2026-08-04T20:29:20.000Z</Time><Position><LatitudeDegrees>56.82744881202557</LatitudeDegrees><LongitudeDegrees>60.60314409718862</LongitudeDegrees></Position></Trackpoint><Trackpoint><Time>2026-08-04T20:29:21.000Z</Time><Position><LatitudeDegrees>56.82744847196612</LatitudeDegrees><LongitudeDegrees>60.60313959303607</LongitudeDegrees></Position></Trackpoint><Trackpoint><Time>2026-08-04T20:29:22.000Z</Time><Position><LatitudeDegrees>56.82744850218769</LatitudeDegrees><LongitudeDegrees>60.603133123262296</LongitudeDegrees></Position></Trackpoint><Trackpoint><Time>2026-08-04T20:29:23.000Z</Time><Position><LatitudeDegrees>56.82744868102444</LatitudeDegrees><LongitudeDegrees>60.603126184755205</LongitudeDegrees></Position></Trackpoint><Trackpoint><Time>2026-08-04T20:29:26.000Z</Time><Position><LatitudeDegrees>56.82744938772308</LatitudeDegrees><LongitudeDegrees>60.60311945414436</LongitudeDegrees></Position></Trackpoint><Trackpoint><Time>2026-08-04T20:29:27.000Z</Time><Position><LatitudeDegrees>56.82745071071975</LatitudeDegrees><LongitudeDegrees>60.603111714573366</LongitudeDegrees></Position></Trackpoint><Trackpoint><Time>2026-08-04T20:29:28.000Z</Time><Position><LatitudeDegrees>56.82745162811328</LatitudeDegrees><LongitudeDegrees>60.60310357361992</LongitudeDegrees></Position></Trackpoint><Trackpoint><Time>2026-08-04T20:29:29.000Z</Time><Position><LatitudeDegrees>56.82745177110921</LatitudeDegrees><LongitudeDegrees>60.603096801853454</LongitudeDegrees></Position></Trackpoint><Trackpoint><Time>2026-08-04T20:29:31.000Z</Time><Position><LatitudeDegrees>56.827451087218456</LatitudeDegrees><LongitudeDegrees>60.60309195272045</LongitudeDegrees></Position></Trackpoint><Trackpoint><Time>2026-08-04T20:29:32.000Z</Time><Position><LatitudeDegrees>56.82744789226706</LatitudeDegrees><LongitudeDegrees>60.603087939086116</LongitudeDegrees></Position></Trackpoint><Trackpoint><Time>2026-08-04T20:29:33.000Z</Time><Position><LatitudeDegrees>56.827447610618044</LatitudeDegrees><LongitudeDegrees>60.60308545244082</LongitudeDegrees></Position></Trackpoint><Trackpoint><Time>2026-08-04T20:29:34.000Z</Time><Position><LatitudeDegrees>56.82744630661584</LatitudeDegrees><LongitudeDegrees>60.603083335132915</LongitudeDegrees></Position></Trackpoint><Trackpoint><Time>2026-08-04T20:29:36.000Z</Time><Position><LatitudeDegrees>56.82744482435152</LatitudeDegrees><LongitudeDegrees>60.60308240881455</LongitudeDegrees></Position></Trackpoint><Trackpoint><Time>2026-08-04T20:29:37.000Z</Time><Position><LatitudeDegrees>56.82744469198594</LatitudeDegrees><LongitudeDegrees>60.60307724158461</LongitudeDegrees></Position></Trackpoint><Trackpoint><Time>2026-08-04T20:29:39.000Z</Time><Position><LatitudeDegrees>56.82744445313344</LatitudeDegrees><LongitudeDegrees>60.603080518241825</LongitudeDegrees></Position></Trackpoint><Trackpoint><Time>2026-08-04T20:29:40.000Z</Time><Position><LatitudeDegrees>56.827442268249044</LatitudeDegrees><LongitudeDegrees>60.60308060109602</LongitudeDegrees></Position></Trackpoint><Trackpoint><Time>2026-08-04T20:29:41.000Z</Time><Position><LatitudeDegrees>56.82744162575844</LatitudeDegrees><LongitudeDegrees>60.603079822495125</LongitudeDegrees></Position></Trackpoint><Trackpoint><Time>2026-08-04T20:29:42.000Z</Time><Position><LatitudeDegrees>56.82744094129731</LatitudeDegrees><LongitudeDegrees>60.603080110433105</LongitudeDegrees></Position></Trackpoint><Trackpoint><Time>2026-08-04T20:29:43.000Z</Time><Position><LatitudeDegrees>56.827437861091475</LatitudeDegrees><LongitudeDegrees>60.603084770318155</LongitudeDegrees></Position></Trackpoint><Trackpoint><Time>2026-08-04T20:29:44.000Z</Time><Position><LatitudeDegrees>56.82743794267501</LatitudeDegrees><LongitudeDegrees>60.60308469108211</LongitudeDegrees></Position></Trackpoint><Trackpoint><Time>2026-08-04T20:29:45.000Z</Time><Position><LatitudeDegrees>56.82743333332413</LatitudeDegrees><LongitudeDegrees>60.60308998853648</LongitudeDegrees></Position></Trackpoint><Trackpoint><Time>2026-08-04T20:29:46.000Z</Time><Position><LatitudeDegrees>56.82742767300348</LatitudeDegrees><LongitudeDegrees>60.60309490127496</LongitudeDegrees></Position></Trackpoint><Trackpoint><Time>2026-08-04T20:29:47.000Z</Time><Position><LatitudeDegrees>56.82742181674139</LatitudeDegrees><LongitudeDegrees>60.60309951464267</LongitudeDegrees></Position></Trackpoint><Trackpoint><Time>2026-08-04T20:29:48.000Z</Time><Position><LatitudeDegrees>56.827416141815846</LatitudeDegrees><LongitudeDegrees>60.603104881432614</LongitudeDegrees></Position></Trackpoint><Trackpoint><Time>2026-08-04T20:29:49.000Z</Time><Position><LatitudeDegrees>56.82740980110698</LatitudeDegrees><LongitudeDegrees>60.60311182813007</LongitudeDegrees></Position></Trackpoint><Trackpoint><Time>2026-08-04T20:29:50.000Z</Time><Position><LatitudeDegrees>56.827403510416104</LatitudeDegrees><LongitudeDegrees>60.60312147155174</LongitudeDegrees></Position></Trackpoint><Trackpoint><Time>2026-08-04T20:29:51.000Z</Time><Position><LatitudeDegrees>56.827397068503714</LatitudeDegrees><LongitudeDegrees>60.60313392551951</LongitudeDegrees></Position></Trackpoint><Trackpoint><Time>2026-08-04T20:29:52.000Z</Time><Position><LatitudeDegrees>56.82737180669821</LatitudeDegrees><LongitudeDegrees>60.6030176605338</LongitudeDegrees></Position></Trackpoint><Trackpoint><Time>2026-08-04T20:30:36.000Z</Time><Position><LatitudeDegrees>56.82728187641781</LatitudeDegrees><LongitudeDegrees>60.602610048971165</LongitudeDegrees></Position></Trackpoint><Trackpoint><Time>2026-08-04T20:30:37.000Z</Time><Position><LatitudeDegrees>56.827247619628906</LatitudeDegrees><LongitudeDegrees>60.60204315185547</LongitudeDegrees></Position></Trackpoint><Trackpoint><Time>2026-08-04T20:30:38.000Z</Time><Position><LatitudeDegrees>56.82733715013001</LatitudeDegrees><LongitudeDegrees>60.60279397411331</LongitudeDegrees></Position></Trackpoint><Trackpoint><Time>2026-08-04T20:30:39.000Z</Time><Position><LatitudeDegrees>56.8272705078125</LatitudeDegrees><LongitudeDegrees>60.601993560791016</LongitudeDegrees></Position></Trackpoint><Trackpoint><Time>2026-08-04T20:30:40.000Z</Time><Position><LatitudeDegrees>56.82731677201206</LatitudeDegrees><LongitudeDegrees>60.602601079190364</LongitudeDegrees></Position></Trackpoint><Trackpoint><Time>2026-08-04T20:30:41.000Z</Time><Position><LatitudeDegrees>56.82730586895789</LatitudeDegrees><LongitudeDegrees>60.60244856066796</LongitudeDegrees></Position></Trackpoint><Trackpoint><Time>2026-08-04T20:30:42.000Z</Time><Position><LatitudeDegrees>56.82730173627331</LatitudeDegrees><LongitudeDegrees>60.60233469406828</LongitudeDegrees></Position></Trackpoint><Trackpoint><Time>2026-08-04T20:30:43.000Z</Time><Position><LatitudeDegrees>56.82730239110837</LatitudeDegrees><LongitudeDegrees>60.60225038100376</LongitudeDegrees></Position></Trackpoint><Trackpoint><Time>2026-08-04T20:30:44.000Z</Time><Position><LatitudeDegrees>56.82730542316719</LatitudeDegrees><LongitudeDegrees>60.60219101896722</LongitudeDegrees></Position></Trackpoint><Trackpoint><Time>2026-08-04T20:30:45.000Z</Time><Position><LatitudeDegrees>56.82731051391773</LatitudeDegrees><LongitudeDegrees>60.602153958119125</LongitudeDegrees></Position></Trackpoint><Trackpoint><Time>2026-08-04T20:30:46.000Z</Time><Position><LatitudeDegrees>56.82731922639038</LatitudeDegrees><LongitudeDegrees>60.602124473409816</LongitudeDegrees></Position></Trackpoint><Trackpoint><Time>2026-08-04T20:30:47.000Z</Time><Position><LatitudeDegrees>56.827329781008146</LatitudeDegrees><LongitudeDegrees>60.602102872346144</LongitudeDegrees></Position></Trackpoint><Trackpoint><Time>2026-08-04T20:30:48.000Z</Time><Position><LatitudeDegrees>56.82734120844535</LatitudeDegrees><LongitudeDegrees>60.60208924893694</LongitudeDegrees></Position></Trackpoint><Trackpoint><Time>2026-08-04T20:30:49.000Z</Time><Position><LatitudeDegrees>56.827352507865676</LatitudeDegrees><LongitudeDegrees>60.60208114914644</LongitudeDegrees></Position></Trackpoint><Trackpoint><Time>2026-08-04T20:30:50.000Z</Time><Position><LatitudeDegrees>56.82736328352213</LatitudeDegrees><LongitudeDegrees>60.60207636376217</LongitudeDegrees></Position></Trackpoint><Trackpoint><Time>2026-08-04T20:30:51.000Z</Time><Position><LatitudeDegrees>56.82737295004658</LatitudeDegrees><LongitudeDegrees>60.60207355755774</LongitudeDegrees></Position></Trackpoint><Trackpoint><Time>2026-08-04T20:30:52.000Z</Time><Position><LatitudeDegrees>56.82738140872033</LatitudeDegrees><LongitudeDegrees>60.60207192661765</LongitudeDegrees></Position></Trackpoint><Trackpoint><Time>2026-08-04T20:30:53.000Z</Time><Position><LatitudeDegrees>56.827388773913526</LatitudeDegrees><LongitudeDegrees>60.60207196824054</LongitudeDegrees></Position></Trackpoint><Trackpoint><Time>2026-08-04T20:30:54.000Z</Time><Position><LatitudeDegrees>56.827395722684805</LatitudeDegrees><LongitudeDegrees>60.602072203727786</LongitudeDegrees></Position></Trackpoint><Trackpoint><Time>2026-08-04T20:30:55.000Z</Time><Position><LatitudeDegrees>56.827402097706</LatitudeDegrees><LongitudeDegrees>60.60207199921979</LongitudeDegrees></Position></Trackpoint><Trackpoint><Time>2026-08-04T20:30:56.000Z</Time><Position><LatitudeDegrees>56.82740790782408</LatitudeDegrees><LongitudeDegrees>60.60207212936599</LongitudeDegrees></Position></Trackpoint><Trackpoint><Time>2026-08-04T20:30:57.000Z</Time><Position><LatitudeDegrees>56.827413718797594</LatitudeDegrees><LongitudeDegrees>60.602072380629885</LongitudeDegrees></Position></Trackpoint><Trackpoint><Time>2026-08-04T20:30:58.000Z</Time><Position><LatitudeDegrees>56.82741976351499</LatitudeDegrees><LongitudeDegrees>60.602072159914115</LongitudeDegrees></Position></Trackpoint><Trackpoint><Time>2026-08-04T20:30:59.000Z</Time><Position><LatitudeDegrees>56.8274256182762</LatitudeDegrees><LongitudeDegrees>60.6020712835393</LongitudeDegrees></Position></Trackpoint><Trackpoint><Time>2026-08-04T20:31:00.000Z</Time><Position><LatitudeDegrees>56.82743113296801</LatitudeDegrees><LongitudeDegrees>60.602070249623615</LongitudeDegrees></Position></Trackpoint><Trackpoint><Time>2026-08-04T20:31:01.000Z</Time><Position><LatitudeDegrees>56.82743918671039</LatitudeDegrees><LongitudeDegrees>60.602070108152255</LongitudeDegrees></Position></Trackpoint><Trackpoint><Time>2026-08-04T20:31:02.000Z</Time><Position><LatitudeDegrees>56.82744243706561</LatitudeDegrees><LongitudeDegrees>60.60207017196191</LongitudeDegrees></Position></Trackpoint><Trackpoint><Time>2026-08-04T20:31:03.000Z</Time><Position><LatitudeDegrees>56.82744716856312</LatitudeDegrees><LongitudeDegrees>60.60207113674667</LongitudeDegrees></Position></Trackpoint><Trackpoint><Time>2026-08-04T20:31:04.000Z</Time><Position><LatitudeDegrees>56.82745239237448</LatitudeDegrees><LongitudeDegrees>60.60207136953312</LongitudeDegrees></Position></Trackpoint><Trackpoint><Time>2026-08-04T20:31:05.000Z</Time><Position><LatitudeDegrees>56.82745763807945</LatitudeDegrees><LongitudeDegrees>60.60207029175923</LongitudeDegrees></Position></Trackpoint><Trackpoint><Time>2026-08-04T20:31:06.000Z</Time><Position><LatitudeDegrees>56.827462219522644</LatitudeDegrees><LongitudeDegrees>60.6020678333623</LongitudeDegrees></Position></Trackpoint><Trackpoint><Time>2026-08-04T20:31:07.000Z</Time><Position><LatitudeDegrees>56.82746642899001</LatitudeDegrees><LongitudeDegrees>60.602064142689045</LongitudeDegrees></Position></Trackpoint><Trackpoint><Time>2026-08-04T20:31:08.000Z</Time><Position><LatitudeDegrees>56.827470434597174</LatitudeDegrees><LongitudeDegrees>60.602059438994395</LongitudeDegrees></Position></Trackpoint><Trackpoint><Time>2026-08-04T20:31:09.000Z</Time><Position><LatitudeDegrees>56.8274738421343</LatitudeDegrees><LongitudeDegrees>60.602055411426456</LongitudeDegrees></Position></Trackpoint><Trackpoint><Time>2026-08-04T20:31:10.000Z</Time><Position><LatitudeDegrees>56.82747754523525</LatitudeDegrees><LongitudeDegrees>60.60205168963168</LongitudeDegrees></Position></Trackpoint><Trackpoint><Time>2026-08-04T20:31:11.000Z</Time><Position><LatitudeDegrees>56.827481384382445</LatitudeDegrees><LongitudeDegrees>60.60204759222997</LongitudeDegrees></Position></Trackpoint><Trackpoint><Time>2026-08-04T20:31:12.000Z</Time><Position><LatitudeDegrees>56.827485766030534</LatitudeDegrees><LongitudeDegrees>60.60204288681487</LongitudeDegrees></Position></Trackpoint><Trackpoint><Time>2026-08-04T20:31:13.000Z</Time><Position><LatitudeDegrees>56.827490298331305</LatitudeDegrees><LongitudeDegrees>60.60203755571125</LongitudeDegrees></Position></Trackpoint><Trackpoint><Time>2026-08-04T20:31:14.000Z</Time><Position><LatitudeDegrees>56.827495290183165</LatitudeDegrees><LongitudeDegrees>60.602032161556686</LongitudeDegrees></Position></Trackpoint><Trackpoint><Time>2026-08-04T20:31:15.000Z</Time><Position><LatitudeDegrees>56.827500320207484</LatitudeDegrees><LongitudeDegrees>60.60202596493536</LongitudeDegrees></Position></Trackpoint><Trackpoint><Time>2026-08-04T20:31:16.000Z</Time><Position><LatitudeDegrees>56.82750472035649</LatitudeDegrees><LongitudeDegrees>60.60201778510533</LongitudeDegrees></Position></Trackpoint><Trackpoint><Time>2026-08-04T20:31:17.000Z</Time><Position><LatitudeDegrees>56.8275092755706</LatitudeDegrees><LongitudeDegrees>60.60200739033953</LongitudeDegrees></Position></Trackpoint><Trackpoint><Time>2026-08-04T20:31:18.000Z</Time><Position><LatitudeDegrees>56.82751526843334</LatitudeDegrees><LongitudeDegrees>60.60199545909929</LongitudeDegrees></Position></Trackpoint><Trackpoint><Time>2026-08-04T20:31:19.000Z</Time><Position><LatitudeDegrees>56.82752353224596</LatitudeDegrees><LongitudeDegrees>60.60198246800179</LongitudeDegrees></Position></Trackpoint><Trackpoint><Time>2026-08-04T20:31:20.000Z</Time><Position><LatitudeDegrees>56.82753313949549</LatitudeDegrees><LongitudeDegrees>60.60196972858619</LongitudeDegrees></Position></Trackpoint><Trackpoint><Time>2026-08-04T20:31:21.000Z</Time><Position><LatitudeDegrees>56.827542066941206</LatitudeDegrees><LongitudeDegrees>60.6019562798532</LongitudeDegrees></Position></Trackpoint><Trackpoint><Time>2026-08-04T20:31:22.000Z</Time><Position><LatitudeDegrees>56.82754907898628</LatitudeDegrees><LongitudeDegrees>60.60194230668169</LongitudeDegrees></Position></Trackpoint><Trackpoint><Time>2026-08-04T20:31:23.000Z</Time><Position><LatitudeDegrees>56.82755391260951</LatitudeDegrees><LongitudeDegrees>60.60192942135371</LongitudeDegrees></Position></Trackpoint><Trackpoint><Time>2026-08-04T20:31:24.000Z</Time><Position><LatitudeDegrees>56.827557228697756</LatitudeDegrees><LongitudeDegrees>60.60191961706954</LongitudeDegrees></Position></Trackpoint><Trackpoint><Time>2026-08-04T20:31:25.000Z</Time><Position><LatitudeDegrees>56.82756047342082</LatitudeDegrees><LongitudeDegrees>60.60191282963761</LongitudeDegrees></Position></Trackpoint><Trackpoint><Time>2026-08-04T20:31:26.000Z</Time><Position><LatitudeDegrees>56.82756555260442</LatitudeDegrees><LongitudeDegrees>60.60189431704219</LongitudeDegrees></Position></Trackpoint><Trackpoint><Time>2026-08-04T20:31:27.000Z</Time><Position><LatitudeDegrees>56.8275626141527</LatitudeDegrees><LongitudeDegrees>60.60190424682652</LongitudeDegrees></Position></Trackpoint><Trackpoint><Time>2026-08-04T20:31:28.000Z</Time><Position><LatitudeDegrees>56.82756419399921</LatitudeDegrees><LongitudeDegrees>60.60189601830041</LongitudeDegrees></Position></Trackpoint><Trackpoint><Time>2026-08-04T20:31:30.000Z</Time><Position><LatitudeDegrees>56.827567393050394</LatitudeDegrees><LongitudeDegrees>60.601873672025555</LongitudeDegrees></Position></Trackpoint></Track></Lap></Activity></Activities></TrainingCenterDatabase>