<?xml version='1.0' encoding='UTF-8' standalone='yes' ?><TrainingCenterDatabase creator="Mi Fitness" version="1.0" xmlns="http://www.garmin.com/xmlschemas/TrainingCenterDatabase/v2" xmlns:xsi="http://www.w3.org/2001/XMLSchema-instance" xsi:schemaLocation="http://www.garmin.com/xmlschemas/TrainingCenterDatabase/v2 http://www.garmin.com/xmlschemas/TrainingCenterDatabasev2.xsd"><Activities><Activity Sport=""><Id>2026-06-13T09:15:51.000Z</Id><Calories>66</Calories><Lap><TotalTimeSeconds>388</TotalTimeSeconds><DistanceMeters>383</DistanceMeters><Calories>46</Calories><HeartRateBpm>125</HeartRateBpm><AverageSpeed>3.5536082</AverageSpeed><Steps>489</Steps><Track><Trackpoint><Time>2026-06-13T09:15:53.000Z</Time><Position><LatitudeDegrees>56.85601806640625</LatitudeDegrees><LongitudeDegrees>60.605037689208984</LongitudeDegrees></Position></Trackpoint><Trackpoint><Time>2026-06-13T09:15:54.000Z</Time><Position><LatitudeDegrees>56.856021230318106</LatitudeDegrees><LongitudeDegrees>60.605069328327566</LongitudeDegrees></Position></Trackpoint><Trackpoint><Time>2026-06-13T09:15:55.000Z</Time><Position><LatitudeDegrees>56.85601726248247</LatitudeDegrees><LongitudeDegrees>60.605067678401106</LongitudeDegrees></Position></Trackpoint><Trackpoint><Time>2026-06-13T09:15:56.000Z</Time><Position><LatitudeDegrees>56.856013158333695</LatitudeDegrees><LongitudeDegrees>60.60506268375145</LongitudeDegrees></Position></Trackpoint><Trackpoint><Time>2026-06-13T09:15:57.000Z</Time><Position><LatitudeDegrees>56.856007507051906</LatitudeDegrees><LongitudeDegrees>60.60505515433335</LongitudeDegrees></Position></Trackpoint><Trackpoint><Time>2026-06-13T09:15:59.000Z</Time><Position><LatitudeDegrees>56.8560016471079</LatitudeDegrees><LongitudeDegrees>60.60504478943629</LongitudeDegrees></Position></Trackpoint><Trackpoint><Time>2026-06-13T09:16:00.000Z</Time><Position><LatitudeDegrees>56.85599496902846</LatitudeDegrees><LongitudeDegrees>60.60503323768447</LongitudeDegrees></Position></Trackpoint><Trackpoint><Time>2026-06-13T09:16:01.000Z</Time><Position><LatitudeDegrees>56.85598784076898</LatitudeDegrees><LongitudeDegrees>60.6050212236605</LongitudeDegrees></Position></Trackpoint><Trackpoint><Time>2026-06-13T09:16:02.000Z</Time><Position><LatitudeDegrees>56.85598095437107</LatitudeDegrees><LongitudeDegrees>60.605009090667515</LongitudeDegrees></Position></Trackpoint><Trackpoint><Time>2026-06-13T09:16:03.000Z</Time><Position><LatitudeDegrees>56.85597456008256</LatitudeDegrees><LongitudeDegrees>60.60499650462056</LongitudeDegrees></Position></Trackpoint><Trackpoint><Time>2026-06-13T09:16:04.000Z</Time><Position><LatitudeDegrees>56.855967718583884</LatitudeDegrees><LongitudeDegrees>60.60498240836978</LongitudeDegrees></Position></Trackpoint><Trackpoint><Time>2026-06-13T09:16:05.000Z</Time><Position><LatitudeDegrees>56.85596059176711</LatitudeDegrees><LongitudeDegrees>60.60496607206845</LongitudeDegrees></Position></Trackpoint><Trackpoint><Time>2026-06-13T09:16:06.000Z</Time><Position><LatitudeDegrees>56.85595230356317</LatitudeDegrees><LongitudeDegrees>60.60494846219089</LongitudeDegrees></Position></Trackpoint><Trackpoint><Time>2026-06-13T09:16:07.000Z</Time><Position><LatitudeDegrees>56.855943132055295</LatitudeDegrees><LongitudeDegrees>60.60492965033525</LongitudeDegrees></Position></Trackpoint><Trackpoint><Time>2026-06-13T09:16:08.000Z</Time><Position><LatitudeDegrees>56.85593379471799</LatitudeDegrees><LongitudeDegrees>60.604910309884986</LongitudeDegrees></Position></Trackpoint><Trackpoint><Time>2026-06-13T09:16:09.000Z</Time><Position><LatitudeDegrees>56.8559241186783</LatitudeDegrees><LongitudeDegrees>60.604890785994336</LongitudeDegrees></Position></Trackpoint><Trackpoint><Time>2026-06-13T09:16:10.000Z</Time><Position><LatitudeDegrees>56.85591456583235</LatitudeDegrees><LongitudeDegrees>60.6048717339703</LongitudeDegrees></Position></Trackpoint><Trackpoint><Time>2026-06-13T09:16:11.000Z</Time><Position><LatitudeDegrees>56.85590531059193</LatitudeDegrees><LongitudeDegrees>60.60485336312829</LongitudeDegrees></Position></Trackpoint><Trackpoint><Time>2026-06-13T09:16:12.000Z</Time><Position><LatitudeDegrees>56.85589638658928</LatitudeDegrees><LongitudeDegrees>60.60483665146677</LongitudeDegrees></Position></Trackpoint><Trackpoint><Time>2026-06-13T09:16:13.000Z</Time><Position><LatitudeDegrees>56.85588776516197</LatitudeDegrees><LongitudeDegrees>60.604822768026665</LongitudeDegrees></Position></Trackpoint><Trackpoint><Time>2026-06-13T09:16:14.000Z</Time><Position><LatitudeDegrees>56.85587939567101</LatitudeDegrees><LongitudeDegrees>60.60481085203904</LongitudeDegrees></Position></Trackpoint><Trackpoint><Time>2026-06-13T09:16:15.000Z</Time><Position><LatitudeDegrees>56.8558707353154</LatitudeDegrees><LongitudeDegrees>60.6047993172702</LongitudeDegrees></Position></Trackpoint><Trackpoint><Time>2026-06-13T09:16:16.000Z</Time><Position><LatitudeDegrees>56.85586208749431</LatitudeDegrees><LongitudeDegrees>60.60478795113819</LongitudeDegrees></Position></Trackpoint><Trackpoint><Time>2026-06-13T09:16:17.000Z</Time><Position><LatitudeDegrees>56.855853085938236</LatitudeDegrees><LongitudeDegrees>60.6047761548398</LongitudeDegrees></Position></Trackpoint><Trackpoint><Time>2026-06-13T09:16:18.000Z</Time><Position><LatitudeDegrees>56.85584362520653</LatitudeDegrees><LongitudeDegrees>60.60476324736848</LongitudeDegrees></Position></Trackpoint><Trackpoint><Time>2026-06-13T09:16:19.000Z</Time><Position><LatitudeDegrees>56.85583372080973</LatitudeDegrees><LongitudeDegrees>60.60474909088041</LongitudeDegrees></Position></Trackpoint><Trackpoint><Time>2026-06-13T09:16:20.000Z</Time><Position><LatitudeDegrees>56.85582343607931</LatitudeDegrees><LongitudeDegrees>60.60473427852693</LongitudeDegrees></Position></Trackpoint><Trackpoint><Time>2026-06-13T09:16:21.000Z</Time><Position><LatitudeDegrees>56.85581284591256</LatitudeDegrees><LongitudeDegrees>60.60471962837748</LongitudeDegrees></Position></Trackpoint><Trackpoint><Time>2026-06-13T09:16:22.000Z</Time><Position><LatitudeDegrees>56.85580250996757</LatitudeDegrees><LongitudeDegrees>60.604705946132334</LongitudeDegrees></Position></Trackpoint><Trackpoint><Time>2026-06-13T09:16:23.000Z</Time><Position><LatitudeDegrees>56.855792136490614</LatitudeDegrees><LongitudeDegrees>60.60469343937667</LongitudeDegrees></Position></Trackpoint><Trackpoint><Time>2026-06-13T09:16:24.000Z</Time><Position><LatitudeDegrees>56.855781610144945</LatitudeDegrees><LongitudeDegrees>60.60467910506497</LongitudeDegrees></Position></Trackpoint><Trackpoint><Time>2026-06-13T09:16:25.000Z</Time><Position><LatitudeDegrees>56.85577090305152</LatitudeDegrees><LongitudeDegrees>60.604663899449484</LongitudeDegrees></Position></Trackpoint><Trackpoint><Time>2026-06-13T09:16:26.000Z</Time><Position><LatitudeDegrees>56.85576002692752</LatitudeDegrees><LongitudeDegrees>60.60464783856668</LongitudeDegrees></Position></Trackpoint><Trackpoint><Time>2026-06-13T09:16:27.000Z</Time><Position><LatitudeDegrees>56.8557494979039</LatitudeDegrees><LongitudeDegrees>60.604631038793165</LongitudeDegrees></Position></Trackpoint><Trackpoint><Time>2026-06-13T09:16:28.000Z</Time><Position><LatitudeDegrees>56.855739483990796</LatitudeDegrees><LongitudeDegrees>60.60461511172408</LongitudeDegrees></Position></Trackpoint><Trackpoint><Time>2026-06-13T09:16:29.000Z</Time><Position><LatitudeDegrees>56.85572949865611</LatitudeDegrees><LongitudeDegrees>60.60460109866836</LongitudeDegrees></Position></Trackpoint><Trackpoint><Time>2026-06-13T09:16:30.000Z</Time><Position><LatitudeDegrees>56.8557193378617</LatitudeDegrees><LongitudeDegrees>60.60458918281105</LongitudeDegrees></Position></Trackpoint><Trackpoint><Time>2026-06-13T09:16:31.000Z</Time><Position><LatitudeDegrees>56.855708940097855</LatitudeDegrees><LongitudeDegrees>60.60457819120036</LongitudeDegrees></Position></Trackpoint><Trackpoint><Time>2026-06-13T09:16:32.000Z</Time><Position><LatitudeDegrees>56.85569831044748</LatitudeDegrees><LongitudeDegrees>60.60456752214999</LongitudeDegrees></Position></Trackpoint><Trackpoint><Time>2026-06-13T09:16:33.000Z</Time><Position><LatitudeDegrees>56.85568650154494</LatitudeDegrees><LongitudeDegrees>60.604556396854704</LongitudeDegrees></Position></Trackpoint><Trackpoint><Time>2026-06-13T09:16:34.000Z</Time><Position><LatitudeDegrees>56.85567425380994</LatitudeDegrees><LongitudeDegrees>60.6045450427455</LongitudeDegrees></Position></Trackpoint><Trackpoint><Time>2026-06-13T09:16:35.000Z</Time><Position><LatitudeDegrees>56.855661928495486</LatitudeDegrees><LongitudeDegrees>60.604535051685815</LongitudeDegrees></Position></Trackpoint><Trackpoint><Time>2026-06-13T09:16:36.000Z</Time><Position><LatitudeDegrees>56.85564968433482</LatitudeDegrees><LongitudeDegrees>60.60452641470214</LongitudeDegrees></Position></Trackpoint><Trackpoint><Time>2026-06-13T09:16:37.000Z</Time><Position><LatitudeDegrees>56.85563757628362</LatitudeDegrees><LongitudeDegrees>60.60451944391591</LongitudeDegrees></Position></Trackpoint><Trackpoint><Time>2026-06-13T09:16:38.000Z</Time><Position><LatitudeDegrees>56.85562560950502</LatitudeDegrees><LongitudeDegrees>60.604513564404584</LongitudeDegrees></Position></Trackpoint><Trackpoint><Time>2026-06-13T09:16:39.000Z</Time><Position><LatitudeDegrees>56.85561425760387</LatitudeDegrees><LongitudeDegrees>60.60450888894303</LongitudeDegrees></Position></Trackpoint><Trackpoint><Time>2026-06-13T09:16:40.000Z</Time><Position><LatitudeDegrees>56.85560314709722</LatitudeDegrees><LongitudeDegrees>60.60450579904836</LongitudeDegrees></Position></Trackpoint><Trackpoint><Time>2026-06-13T09:16:41.000Z</Time><Position><LatitudeDegrees>56.855592582800355</LatitudeDegrees><LongitudeDegrees>60.60450473794755</LongitudeDegrees></Position></Trackpoint><Trackpoint><Time>2026-06-13T09:16:42.000Z</Time><Position><LatitudeDegrees>56.85558213053054</LatitudeDegrees><LongitudeDegrees>60.60450611739424</LongitudeDegrees></Position></Trackpoint><Trackpoint><Time>2026-06-13T09:16:43.000Z</Time><Position><LatitudeDegrees>56.855571107487734</LatitudeDegrees><LongitudeDegrees>60.6045088145005</LongitudeDegrees></Position></Trackpoint><Trackpoint><Time>2026-06-13T09:16:44.000Z</Time><Position><LatitudeDegrees>56.855559795340575</LatitudeDegrees><LongitudeDegrees>60.604512197704025</LongitudeDegrees></Position></Trackpoint><Trackpoint><Time>2026-06-13T09:16:45.000Z</Time><Position><LatitudeDegrees>56.85554834719571</LatitudeDegrees><LongitudeDegrees>60.60451738767871</LongitudeDegrees></Position></Trackpoint><Trackpoint><Time>2026-06-13T09:16:46.000Z</Time><Position><LatitudeDegrees>56.855537333173274</LatitudeDegrees><LongitudeDegrees>60.604524124448474</LongitudeDegrees></Position></Trackpoint><Trackpoint><Time>2026-06-13T09:16:47.000Z</Time><Position><LatitudeDegrees>56.85552546351694</LatitudeDegrees><LongitudeDegrees>60.60453014397521</LongitudeDegrees></Position></Trackpoint><Trackpoint><Time>2026-06-13T09:16:48.000Z</Time><Position><LatitudeDegrees>56.85551280649199</LatitudeDegrees><LongitudeDegrees>60.60453460590959</LongitudeDegrees></Position></Trackpoint><Trackpoint><Time>2026-06-13T09:16:49.000Z</Time><Position><LatitudeDegrees>56.85549949126989</LatitudeDegrees><LongitudeDegrees>60.60453883291421</LongitudeDegrees></Position></Trackpoint><Trackpoint><Time>2026-06-13T09:16:50.000Z</Time><Position><LatitudeDegrees>56.855485165915766</LatitudeDegrees><LongitudeDegrees>60.60454193102666</LongitudeDegrees></Position></Trackpoint><Trackpoint><Time>2026-06-13T09:16:51.000Z</Time><Position><LatitudeDegrees>56.855470304750625</LatitudeDegrees><LongitudeDegrees>60.604544166585626</LongitudeDegrees></Position></Trackpoint><Trackpoint><Time>2026-06-13T09:16:52.000Z</Time><Position><LatitudeDegrees>56.85545517188621</LatitudeDegrees><LongitudeDegrees>60.60454624959631</LongitudeDegrees></Position></Trackpoint><Trackpoint><Time>2026-06-13T09:16:53.000Z</Time><Position><LatitudeDegrees>56.85543942135412</LatitudeDegrees><LongitudeDegrees>60.60454800243126</LongitudeDegrees></Position></Trackpoint><Trackpoint><Time>2026-06-13T09:16:54.000Z</Time><Position><LatitudeDegrees>56.85542396917098</LatitudeDegrees><LongitudeDegrees>60.604549883925735</LongitudeDegrees></Position></Trackpoint><Trackpoint><Time>2026-06-13T09:16:55.000Z</Time><Position><LatitudeDegrees>56.855409154290335</LatitudeDegrees><LongitudeDegrees>60.60455206653015</LongitudeDegrees></Position></Trackpoint><Trackpoint><Time>2026-06-13T09:16:56.000Z</Time><Position><LatitudeDegrees>56.85539552411838</LatitudeDegrees><LongitudeDegrees>60.604553113786466</LongitudeDegrees></Position></Trackpoint><Trackpoint><Time>2026-06-13T09:16:57.000Z</Time><Position><LatitudeDegrees>56.85538364165028</LatitudeDegrees><LongitudeDegrees>60.604553559054814</LongitudeDegrees></Position></Trackpoint><Trackpoint><Time>2026-06-13T09:16:58.000Z</Time><Position><LatitudeDegrees>56.855373024820466</LatitudeDegrees><LongitudeDegrees>60.604555168086776</LongitudeDegrees></Position></Trackpoint><Trackpoint><Time>2026-06-13T09:16:59.000Z</Time><Position><LatitudeDegrees>56.85536282304488</LatitudeDegrees><LongitudeDegrees>60.60455802909983</LongitudeDegrees></Position></Trackpoint><Trackpoint><Time>2026-06-13T09:17:00.000Z</Time><Position><LatitudeDegrees>56.85535263275306</LatitudeDegrees><LongitudeDegrees>60.604562017734985</LongitudeDegrees></Position></Trackpoint><Trackpoint><Time>2026-06-13T09:17:01.000Z</Time><Position><LatitudeDegrees>56.855341796656695</LatitudeDegrees><LongitudeDegrees>60.604566448437865</LongitudeDegrees></Position></Trackpoint><Trackpoint><Time>2026-06-13T09:17:02.000Z</Time><Position><LatitudeDegrees>56.85533061656118</LatitudeDegrees><LongitudeDegrees>60.604570982135584</LongitudeDegrees></Position></Trackpoint><Trackpoint><Time>2026-06-13T09:17:03.000Z</Time><Position><LatitudeDegrees>56.855318771301214</LatitudeDegrees><LongitudeDegrees>60.60457546596739</LongitudeDegrees></Position></Trackpoint><Trackpoint><Time>2026-06-13T09:17:04.000Z</Time><Position><LatitudeDegrees>56.85530621398305</LatitudeDegrees><LongitudeDegrees>60.60458033299097</LongitudeDegrees></Position></Trackpoint><Trackpoint><Time>2026-06-13T09:17:05.000Z</Time><Position><LatitudeDegrees>56.85529350629649</LatitudeDegrees><LongitudeDegrees>60.60458620198245</LongitudeDegrees></Position></Trackpoint><Trackpoint><Time>2026-06-13T09:17:06.000Z</Time><Position><LatitudeDegrees>56.85527991964245</LatitudeDegrees><LongitudeDegrees>60.60459221995217</LongitudeDegrees></Position></Trackpoint><Trackpoint><Time>2026-06-13T09:17:07.000Z</Time><Position><LatitudeDegrees>56.85526624599491</LatitudeDegrees><LongitudeDegrees>60.604598506100025</LongitudeDegrees></Position></Trackpoint><Trackpoint><Time>2026-06-13T09:17:08.000Z</Time><Position><LatitudeDegrees>56.85525184345941</LatitudeDegrees><LongitudeDegrees>60.604603606264405</LongitudeDegrees></Position></Trackpoint><Trackpoint><Time>2026-06-13T09:17:09.000Z</Time><Position><LatitudeDegrees>56.8552370308447</LatitudeDegrees><LongitudeDegrees>60.604607073792245</LongitudeDegrees></Position></Trackpoint><Trackpoint><Time>2026-06-13T09:17:10.000Z</Time><Position><LatitudeDegrees>56.85522150246927</LatitudeDegrees><LongitudeDegrees>60.6046104031152</LongitudeDegrees></Position></Trackpoint><Trackpoint><Time>2026-06-13T09:17:11.000Z</Time><Position><LatitudeDegrees>56.85520571392071</LatitudeDegrees><LongitudeDegrees>60.604614227428456</LongitudeDegrees></Position></Trackpoint><Trackpoint><Time>2026-06-13T09:17:12.000Z</Time><Position><LatitudeDegrees>56.855189396607386</LatitudeDegrees><LongitudeDegrees>60.60461776475041</LongitudeDegrees></Position></Trackpoint><Trackpoint><Time>2026-06-13T09:17:13.000Z</Time><Position><LatitudeDegrees>56.85517299739109</LatitudeDegrees><LongitudeDegrees>60.60462121948047</LongitudeDegrees></Position></Trackpoint><Trackpoint><Time>2026-06-13T09:17:14.000Z</Time><Position><LatitudeDegrees>56.85515671081652</LatitudeDegrees><LongitudeDegrees>60.604624686397685</LongitudeDegrees></Position></Trackpoint><Trackpoint><Time>2026-06-13T09:17:15.000Z</Time><Position><LatitudeDegrees>56.85514109215691</LatitudeDegrees><LongitudeDegrees>60.604629182192255</LongitudeDegrees></Position></Trackpoint><Trackpoint><Time>2026-06-13T09:17:16.000Z</Time><Position><LatitudeDegrees>56.85512628436641</LatitudeDegrees><LongitudeDegrees>60.60463450390564</LongitudeDegrees></Position></Trackpoint><Trackpoint><Time>2026-06-13T09:17:17.000Z</Time><Position><LatitudeDegrees>56.85511224224449</LatitudeDegrees><LongitudeDegrees>60.604639482726085</LongitudeDegrees></Position></Trackpoint><Trackpoint><Time>2026-06-13T09:17:18.000Z</Time><Position><LatitudeDegrees>56.85509835929303</LatitudeDegrees><LongitudeDegrees>60.60464417091833</LongitudeDegrees></Position></Trackpoint><Trackpoint><Time>2026-06-13T09:17:19.000Z</Time><Position><LatitudeDegrees>56.85508534452784</LatitudeDegrees><LongitudeDegrees>60.604648137697815</LongitudeDegrees></Position></Trackpoint><Trackpoint><Time>2026-06-13T09:17:20.000Z</Time><Position><LatitudeDegrees>56.85507288890427</LatitudeDegrees><LongitudeDegrees>60.60465227746656</LongitudeDegrees></Position></Trackpoint><Trackpoint><Time>2026-06-13T09:17:21.000Z</Time><Position><LatitudeDegrees>56.85506079338242</LatitudeDegrees><LongitudeDegrees>60.60465742597686</LongitudeDegrees></Position></Trackpoint><Trackpoint><Time>2026-06-13T09:17:22.000Z</Time><Position><LatitudeDegrees>56.85504844016192</LatitudeDegrees><LongitudeDegrees>60.60466330833831</LongitudeDegrees></Position></Trackpoint><Trackpoint><Time>2026-06-13T09:17:23.000Z</Time><Position><LatitudeDegrees>56.855036097497816</LatitudeDegrees><LongitudeDegrees>60.6046702067638</LongitudeDegrees></Position></Trackpoint><Trackpoint><Time>2026-06-13T09:17:24.000Z</Time><Position><LatitudeDegrees>56.8550243641222</LatitudeDegrees><LongitudeDegrees>60.604679086288975</LongitudeDegrees></Position></Trackpoint><Trackpoint><Time>2026-06-13T09:17:25.000Z</Time><Position><LatitudeDegrees>56.85501291880104</LatitudeDegrees><LongitudeDegrees>60.604689110855304</LongitudeDegrees></Position></Trackpoint><Trackpoint><Time>2026-06-13T09:17:26.000Z</Time><Position><LatitudeDegrees>56.855001102657475</LatitudeDegrees><LongitudeDegrees>60.60469978918171</LongitudeDegrees></Position></Trackpoint><Trackpoint><Time>2026-06-13T09:17:27.000Z</Time><Position><LatitudeDegrees>56.854989181549165</LatitudeDegrees><LongitudeDegrees>60.604710835033146</LongitudeDegrees></Position></Trackpoint><Trackpoint><Time>2026-06-13T09:17:28.000Z</Time><Position><LatitudeDegrees>56.85497629921598</LatitudeDegrees><LongitudeDegrees>60.604721593746575</LongitudeDegrees></Position></Trackpoint><Trackpoint><Time>2026-06-13T09:17:29.000Z</Time><Position><LatitudeDegrees>56.854962716003826</LatitudeDegrees><LongitudeDegrees>60.60473281178489</LongitudeDegrees></Position></Trackpoint><Trackpoint><Time>2026-06-13T09:17:30.000Z</Time><Position><LatitudeDegrees>56.854949118699196</LatitudeDegrees><LongitudeDegrees>60.604744737612755</LongitudeDegrees></Position></Trackpoint><Trackpoint><Time>2026-06-13T09:17:31.000Z</Time><Position><LatitudeDegrees>56.85493579195242</LatitudeDegrees><LongitudeDegrees>60.60475689310186</LongitudeDegrees></Position></Trackpoint><Trackpoint><Time>2026-06-13T09:17:32.000Z</Time><Position><LatitudeDegrees>56.85492232865569</LatitudeDegrees><LongitudeDegrees>60.604769051866356</LongitudeDegrees></Position></Trackpoint><Trackpoint><Time>2026-06-13T09:17:33.000Z</Time><Position><LatitudeDegrees>56.85490857867441</LatitudeDegrees><LongitudeDegrees>60.60478063064199</LongitudeDegrees></Position></Trackpoint><Trackpoint><Time>2026-06-13T09:17:34.000Z</Time><Position><LatitudeDegrees>56.85489451697369</LatitudeDegrees><LongitudeDegrees>60.60478950521931</LongitudeDegrees></Position></Trackpoint><Trackpoint><Time>2026-06-13T09:17:35.000Z</Time><Position><LatitudeDegrees>56.8548796836414</LatitudeDegrees><LongitudeDegrees>60.60479465824716</LongitudeDegrees></Position></Trackpoint><Trackpoint><Time>2026-06-13T09:17:36.000Z</Time><Position><LatitudeDegrees>56.85486496752939</LatitudeDegrees><LongitudeDegrees>60.604798106844136</LongitudeDegrees></Position></Trackpoint><Trackpoint><Time>2026-06-13T09:17:37.000Z</Time><Position><LatitudeDegrees>56.85485120926206</LatitudeDegrees><LongitudeDegrees>60.60480090048806</LongitudeDegrees></Position></Trackpoint><Trackpoint><Time>2026-06-13T09:17:38.000Z</Time><Position><LatitudeDegrees>56.854838632098655</LatitudeDegrees><LongitudeDegrees>60.60480404506174</LongitudeDegrees></Position></Trackpoint><Trackpoint><Time>2026-06-13T09:17:39.000Z</Time><Position><LatitudeDegrees>56.85482668678126</LatitudeDegrees><LongitudeDegrees>60.60480790977997</LongitudeDegrees></Position></Trackpoint><Trackpoint><Time>2026-06-13T09:17:40.000Z</Time><Position><LatitudeDegrees>56.854815066010666</LatitudeDegrees><LongitudeDegrees>60.60481255426824</LongitudeDegrees></Position></Trackpoint><Trackpoint><Time>2026-06-13T09:17:41.000Z</Time><Position><LatitudeDegrees>56.85480262235449</LatitudeDegrees><LongitudeDegrees>60.6048174133894</LongitudeDegrees></Position></Trackpoint><Trackpoint><Time>2026-06-13T09:17:42.000Z</Time><Position><LatitudeDegrees>56.85478947848854</LatitudeDegrees><LongitudeDegrees>60.60482173724269</LongitudeDegrees></Position></Trackpoint><Trackpoint><Time>2026-06-13T09:17:43.000Z</Time><Position><LatitudeDegrees>56.85477577480568</LatitudeDegrees><LongitudeDegrees>60.60482626491604</LongitudeDegrees></Position></Trackpoint><Trackpoint><Time>2026-06-13T09:17:44.000Z</Time><Position><LatitudeDegrees>56.854762130586636</LatitudeDegrees><LongitudeDegrees>60.604831274630506</LongitudeDegrees></Position></Trackpoint><Trackpoint><Time>2026-06-13T09:17:45.000Z</Time><Position><LatitudeDegrees>56.85474830362916</LatitudeDegrees><LongitudeDegrees>60.60483779831878</LongitudeDegrees></Position></Trackpoint><Trackpoint><Time>2026-06-13T09:17:46.000Z</Time><Position><LatitudeDegrees>56.854734707251104</LatitudeDegrees><LongitudeDegrees>60.60484557703831</LongitudeDegrees></Position></Trackpoint><Trackpoint><Time>2026-06-13T09:17:47.000Z</Time><Position><LatitudeDegrees>56.85472050285479</LatitudeDegrees><LongitudeDegrees>60.604853853455914</LongitudeDegrees></Position></Trackpoint><Trackpoint><Time>2026-06-13T09:17:48.000Z</Time><Position><LatitudeDegrees>56.854706402337186</LatitudeDegrees><LongitudeDegrees>60.604862741408375</LongitudeDegrees></Position></Trackpoint><Trackpoint><Time>2026-06-13T09:17:49.000Z</Time><Position><LatitudeDegrees>56.854692685548535</LatitudeDegrees><LongitudeDegrees>60.60487123006666</LongitudeDegrees></Position></Trackpoint><Trackpoint><Time>2026-06-13T09:17:50.000Z</Time><Position><LatitudeDegrees>56.85467892887884</LatitudeDegrees><LongitudeDegrees>60.604878954386464</LongitudeDegrees></Position></Trackpoint><Trackpoint><Time>2026-06-13T09:17:51.000Z</Time><Position><LatitudeDegrees>56.85466447337944</LatitudeDegrees><LongitudeDegrees>60.60488635174268</LongitudeDegrees></Position></Trackpoint><Trackpoint><Time>2026-06-13T09:17:52.000Z</Time><Position><LatitudeDegrees>56.85464962697764</LatitudeDegrees><LongitudeDegrees>60.60489266500491</LongitudeDegrees></Position></Trackpoint><Trackpoint><Time>2026-06-13T09:17:53.000Z</Time><Position><LatitudeDegrees>56.854634077049305</LatitudeDegrees><LongitudeDegrees>60.60489772150344</LongitudeDegrees></Position></Trackpoint><Trackpoint><Time>2026-06-13T09:17:54.000Z</Time><Position><LatitudeDegrees>56.85461778514195</LatitudeDegrees><LongitudeDegrees>60.60490210104146</LongitudeDegrees></Position></Trackpoint><Trackpoint><Time>2026-06-13T09:17:55.000Z</Time><Position><LatitudeDegrees>56.854601320262056</LatitudeDegrees><LongitudeDegrees>60.6049061292881</LongitudeDegrees></Position></Trackpoint><Trackpoint><Time>2026-06-13T09:17:56.000Z</Time><Position><LatitudeDegrees>56.85458493894624</LatitudeDegrees><LongitudeDegrees>60.60491047506313</LongitudeDegrees></Position></Trackpoint><Trackpoint><Time>2026-06-13T09:17:57.000Z</Time><Position><LatitudeDegrees>56.854568736119504</LatitudeDegrees><LongitudeDegrees>60.60491341461205</LongitudeDegrees></Position></Trackpoint><Trackpoint><Time>2026-06-13T09:17:58.000Z</Time><Position><LatitudeDegrees>56.85455370718756</LatitudeDegrees><LongitudeDegrees>60.60491539774351</LongitudeDegrees></Position></Trackpoint><Trackpoint><Time>2026-06-13T09:17:59.000Z</Time><Position><LatitudeDegrees>56.85453913220284</LatitudeDegrees><LongitudeDegrees>60.60491624284783</LongitudeDegrees></Position></Trackpoint><Trackpoint><Time>2026-06-13T09:18:00.000Z</Time><Position><LatitudeDegrees>56.854525146014076</LatitudeDegrees><LongitudeDegrees>60.60491700041737</LongitudeDegrees></Position></Trackpoint><Trackpoint><Time>2026-06-13T09:18:01.000Z</Time><Position><LatitudeDegrees>56.85451123897481</LatitudeDegrees><LongitudeDegrees>60.604917135093665</LongitudeDegrees></Position></Trackpoint><Trackpoint><Time>2026-06-13T09:18:02.000Z</Time><Position><LatitudeDegrees>56.85449768064752</LatitudeDegrees><LongitudeDegrees>60.60491650634562</LongitudeDegrees></Position></Trackpoint><Trackpoint><Time>2026-06-13T09:18:03.000Z</Time><Position><LatitudeDegrees>56.85448355806914</LatitudeDegrees><LongitudeDegrees>60.60491515428222</LongitudeDegrees></Position></Trackpoint><Trackpoint><Time>2026-06-13T09:18:04.000Z</Time><Position><LatitudeDegrees>56.85446905728242</LatitudeDegrees><LongitudeDegrees>60.6049131882581</LongitudeDegrees></Position></Trackpoint><Trackpoint><Time>2026-06-13T09:18:05.000Z</Time><Position><LatitudeDegrees>56.85445430344845</LatitudeDegrees><LongitudeDegrees>60.604911711331326</LongitudeDegrees></Position></Trackpoint><Trackpoint><Time>2026-06-13T09:18:06.000Z</Time><Position><LatitudeDegrees>56.854439870201574</LatitudeDegrees><LongitudeDegrees>60.604911604613704</LongitudeDegrees></Position></Trackpoint><Trackpoint><Time>2026-06-13T09:18:07.000Z</Time><Position><LatitudeDegrees>56.85442497341545</LatitudeDegrees><LongitudeDegrees>60.604913055112185</LongitudeDegrees></Position></Trackpoint><Trackpoint><Time>2026-06-13T09:18:08.000Z</Time><Position><LatitudeDegrees>56.85441032887649</LatitudeDegrees><LongitudeDegrees>60.60491447114428</LongitudeDegrees></Position></Trackpoint><Trackpoint><Time>2026-06-13T09:18:09.000Z</Time><Position><LatitudeDegrees>56.854395709383255</LatitudeDegrees><LongitudeDegrees>60.60491618084701</LongitudeDegrees></Position></Trackpoint><Trackpoint><Time>2026-06-13T09:18:10.000Z</Time><Position><LatitudeDegrees>56.85438101815203</LatitudeDegrees><LongitudeDegrees>60.60491779205535</LongitudeDegrees></Position></Trackpoint><Trackpoint><Time>2026-06-13T09:18:11.000Z</Time><Position><LatitudeDegrees>56.854366714142145</LatitudeDegrees><LongitudeDegrees>60.60491915590426</LongitudeDegrees></Position></Trackpoint><Trackpoint><Time>2026-06-13T09:18:12.000Z</Time><Position><LatitudeDegrees>56.85435244705845</LatitudeDegrees><LongitudeDegrees>60.60492073244499</LongitudeDegrees></Position></Trackpoint><Trackpoint><Time>2026-06-13T09:18:13.000Z</Time><Position><LatitudeDegrees>56.85433855750894</LatitudeDegrees><LongitudeDegrees>60.60492317345392</LongitudeDegrees></Position></Trackpoint><Trackpoint><Time>2026-06-13T09:18:14.000Z</Time><Position><LatitudeDegrees>56.854324158090144</LatitudeDegrees><LongitudeDegrees>60.604925657179884</LongitudeDegrees></Position></Trackpoint><Trackpoint><Time>2026-06-13T09:18:15.000Z</Time><Position><LatitudeDegrees>56.854309928001925</LatitudeDegrees><LongitudeDegrees>60.60492783971568</LongitudeDegrees></Position></Trackpoint><Trackpoint><Time>2026-06-13T09:18:16.000Z</Time><Position><LatitudeDegrees>56.85429563561748</LatitudeDegrees><LongitudeDegrees>60.60492961808615</LongitudeDegrees></Position></Trackpoint><Trackpoint><Time>2026-06-13T09:18:17.000Z</Time><Position><LatitudeDegrees>56.854281193540814</LatitudeDegrees><LongitudeDegrees>60.604931980977945</LongitudeDegrees></Position></Trackpoint><Trackpoint><Time>2026-06-13T09:18:18.000Z</Time><Position><LatitudeDegrees>56.85426609538147</LatitudeDegrees><LongitudeDegrees>60.60493575015339</LongitudeDegrees></Position></Trackpoint><Trackpoint><Time>2026-06-13T09:18:19.000Z</Time><Position><LatitudeDegrees>56.85425070640883</LatitudeDegrees><LongitudeDegrees>60.60493961471537</LongitudeDegrees></Position></Trackpoint><Trackpoint><Time>2026-06-13T09:18:20.000Z</Time><Position><LatitudeDegrees>56.854235214378434</LatitudeDegrees><LongitudeDegrees>60.604943022550025</LongitudeDegrees></Position></Trackpoint><Trackpoint><Time>2026-06-13T09:18:21.000Z</Time><Position><LatitudeDegrees>56.854220199452215</LatitudeDegrees><LongitudeDegrees>60.604944825677485</LongitudeDegrees></Position></Trackpoint><Trackpoint><Time>2026-06-13T09:18:22.000Z</Time><Position><LatitudeDegrees>56.85420534971397</LatitudeDegrees><LongitudeDegrees>60.60494475728309</LongitudeDegrees></Position></Trackpoint><Trackpoint><Time>2026-06-13T09:18:23.000Z</Time><Position><LatitudeDegrees>56.8541905155046</LatitudeDegrees><LongitudeDegrees>60.60494343730129</LongitudeDegrees></Position></Trackpoint><Trackpoint><Time>2026-06-13T09:18:24.000Z</Time><Position><LatitudeDegrees>56.85417563319637</LatitudeDegrees><LongitudeDegrees>60.60494128168109</LongitudeDegrees></Position></Trackpoint><Trackpoint><Time>2026-06-13T09:18:25.000Z</Time><Position><LatitudeDegrees>56.8541611723693</LatitudeDegrees><LongitudeDegrees>60.60493905858774</LongitudeDegrees></Position></Trackpoint><Trackpoint><Time>2026-06-13T09:18:26.000Z</Time><Position><LatitudeDegrees>56.854146782705016</LatitudeDegrees><LongitudeDegrees>60.60493709303735</LongitudeDegrees></Position></Trackpoint><Trackpoint><Time>2026-06-13T09:18:27.000Z</Time><Position><LatitudeDegrees>56.85413182118647</LatitudeDegrees><LongitudeDegrees>60.60493548582716</LongitudeDegrees></Position></Trackpoint><Trackpoint><Time>2026-06-13T09:18:28.000Z</Time><Position><LatitudeDegrees>56.85411658600505</LatitudeDegrees><LongitudeDegrees>60.60493423247641</LongitudeDegrees></Position></Trackpoint><Trackpoint><Time>2026-06-13T09:18:29.000Z</Time><Position><LatitudeDegrees>56.85410123509012</LatitudeDegrees><LongitudeDegrees>60.60493426494368</LongitudeDegrees></Position></Trackpoint><Trackpoint><Time>2026-06-13T09:18:30.000Z</Time><Position><LatitudeDegrees>56.854085358725875</LatitudeDegrees><LongitudeDegrees>60.60493580200781</LongitudeDegrees></Position></Trackpoint><Trackpoint><Time>2026-06-13T09:18:31.000Z</Time><Position><LatitudeDegrees>56.8540688556183</LatitudeDegrees><LongitudeDegrees>60.604937271824625</LongitudeDegrees></Position></Trackpoint><Trackpoint><Time>2026-06-13T09:18:32.000Z</Time><Position><LatitudeDegrees>56.854052743713936</LatitudeDegrees><LongitudeDegrees>60.60493950451923</LongitudeDegrees></Position></Trackpoint><Trackpoint><Time>2026-06-13T09:18:33.000Z</Time><Position><LatitudeDegrees>56.854036902416155</LatitudeDegrees><LongitudeDegrees>60.60494225443999</LongitudeDegrees></Position></Trackpoint><Trackpoint><Time>2026-06-13T09:18:34.000Z</Time><Position><LatitudeDegrees>56.8540212473273</LatitudeDegrees><LongitudeDegrees>60.604945354034186</LongitudeDegrees></Position></Trackpoint><Trackpoint><Time>2026-06-13T09:18:35.000Z</Time><Position><LatitudeDegrees>56.854006209400595</LatitudeDegrees><LongitudeDegrees>60.60494868941796</LongitudeDegrees></Position></Trackpoint><Trackpoint><Time>2026-06-13T09:18:36.000Z</Time><Position><LatitudeDegrees>56.85399237651573</LatitudeDegrees><LongitudeDegrees>60.6049521834269</LongitudeDegrees></Position></Trackpoint><Trackpoint><Time>2026-06-13T09:18:37.000Z</Time><Position><LatitudeDegrees>56.85397983611587</LatitudeDegrees><LongitudeDegrees>60.60495676314408</LongitudeDegrees></Position></Trackpoint><Trackpoint><Time>2026-06-13T09:18:38.000Z</Time><Position><LatitudeDegrees>56.85396845832454</LatitudeDegrees><LongitudeDegrees>60.60496169180297</LongitudeDegrees></Position></Trackpoint><Trackpoint><Time>2026-06-13T09:18:39.000Z</Time><Position><LatitudeDegrees>56.85395853004584</LatitudeDegrees><LongitudeDegrees>60.60496711080302</LongitudeDegrees></Position></Trackpoint><Trackpoint><Time>2026-06-13T09:18:40.000Z</Time><Position><LatitudeDegrees>56.853949983393704</LatitudeDegrees><LongitudeDegrees>60.604973015442695</LongitudeDegrees></Position></Trackpoint><Trackpoint><Time>2026-06-13T09:18:41.000Z</Time><Position><LatitudeDegrees>56.85394310269132</LatitudeDegrees><LongitudeDegrees>60.60497934145464</LongitudeDegrees></Position></Trackpoint><Trackpoint><Time>2026-06-13T09:18:42.000Z</Time><Position><LatitudeDegrees>56.853937301599714</LatitudeDegrees><LongitudeDegrees>60.60498502906768</LongitudeDegrees></Position></Trackpoint><Trackpoint><Time>2026-06-13T09:18:44.000Z</Time><Position><LatitudeDegrees>56.85393109704809</LatitudeDegrees><LongitudeDegrees>60.6049902285202</LongitudeDegrees></Position></Trackpoint><Trackpoint><Time>2026-06-13T09:18:47.000Z</Time><Position><LatitudeDegrees>56.85392870796512</LatitudeDegrees><LongitudeDegrees>60.604993060479536</LongitudeDegrees></Position></Trackpoint><Trackpoint><Time>2026-06-13T09:18:54.000Z</Time><Position><LatitudeDegrees>56.85392146914458</LatitudeDegrees><LongitudeDegrees>60.60500273801636</LongitudeDegrees></Position></Trackpoint><Trackpoint><Time>2026-06-13T09:18:55.000Z</Time><Position><LatitudeDegrees>56.85392284885979</LatitudeDegrees><LongitudeDegrees>60.60500084919465</LongitudeDegrees></Position></Trackpoint><Trackpoint><Time>2026-06-13T09:18:57.000Z</Time><Position><LatitudeDegrees>56.85391922614672</LatitudeDegrees><LongitudeDegrees>60.60500503259075</LongitudeDegrees></Position></Trackpoint><Trackpoint><Time>2026-06-13T09:18:58.000Z</Time><Position><LatitudeDegrees>56.853912935215924</LatitudeDegrees><LongitudeDegrees>60.6050114364909</LongitudeDegrees></Position></Trackpoint><Trackpoint><Time>2026-06-13T09:18:59.000Z</Time><Position><LatitudeDegrees>56.85390439441306</LatitudeDegrees><LongitudeDegrees>60.60501940176963</LongitudeDegrees></Position></Trackpoint><Trackpoint><Time>2026-06-13T09:19:00.000Z</Time><Position><LatitudeDegrees>56.85389406479449</LatitudeDegrees><LongitudeDegrees>60.6050279669659</LongitudeDegrees></Position></Trackpoint><Trackpoint><Time>2026-06-13T09:19:01.000Z</Time><Position><LatitudeDegrees>56.85388285544101</LatitudeDegrees><LongitudeDegrees>60.60503567989824</LongitudeDegrees></Position></Trackpoint><Trackpoint><Time>2026-06-13T09:19:02.000Z</Time><Position><LatitudeDegrees>56.853872232876284</LatitudeDegrees><LongitudeDegrees>60.60504205189669</LongitudeDegrees></Position></Trackpoint><Trackpoint><Time>2026-06-13T09:19:03.000Z</Time><Position><LatitudeDegrees>56.853862236139605</LatitudeDegrees><LongitudeDegrees>60.60504803303873</LongitudeDegrees></Position></Trackpoint><Trackpoint><Time>2026-06-13T09:19:04.000Z</Time><Position><LatitudeDegrees>56.85385280098456</LatitudeDegrees><LongitudeDegrees>60.60505504398501</LongitudeDegrees></Position></Trackpoint><Trackpoint><Time>2026-06-13T09:19:05.000Z</Time><Position><LatitudeDegrees>56.85384382887419</LatitudeDegrees><LongitudeDegrees>60.60506402724778</LongitudeDegrees></Position></Trackpoint><Trackpoint><Time>2026-06-13T09:19:06.000Z</Time><Position><LatitudeDegrees>56.8538352197966</LatitudeDegrees><LongitudeDegrees>60.60507462823055</LongitudeDegrees></Position></Trackpoint><Trackpoint><Time>2026-06-13T09:19:07.000Z</Time><Position><LatitudeDegrees>56.8538278651901</LatitudeDegrees><LongitudeDegrees>60.60508698287736</LongitudeDegrees></Position></Trackpoint><Trackpoint><Time>2026-06-13T09:19:08.000Z</Time><Position><LatitudeDegrees>56.85382148155861</LatitudeDegrees><LongitudeDegrees>60.60510141170501</LongitudeDegrees></Position></Trackpoint><Trackpoint><Time>2026-06-13T09:19:09.000Z</Time><Position><LatitudeDegrees>56.85381680674707</LatitudeDegrees><LongitudeDegrees>60.60511680127378</LongitudeDegrees></Position></Trackpoint><Trackpoint><Time>2026-06-13T09:19:10.000Z</Time><Position><LatitudeDegrees>56.853813435689545</LatitudeDegrees><LongitudeDegrees>60.60513354894365</LongitudeDegrees></Position></Trackpoint><Trackpoint><Time>2026-06-13T09:19:11.000Z</Time><Position><LatitudeDegrees>56.85381103423154</LatitudeDegrees><LongitudeDegrees>60.60515115443985</LongitudeDegrees></Position></Trackpoint><Trackpoint><Time>2026-06-13T09:19:12.000Z</Time><Position><LatitudeDegrees>56.85380934031044</LatitudeDegrees><LongitudeDegrees>60.60516881202124</LongitudeDegrees></Position></Trackpoint><Trackpoint><Time>2026-06-13T09:19:13.000Z</Time><Position><LatitudeDegrees>56.85380766557823</LatitudeDegrees><LongitudeDegrees>60.6051866727823</LongitudeDegrees></Position></Trackpoint><Trackpoint><Time>2026-06-13T09:19:14.000Z</Time><Position><LatitudeDegrees>56.853805724087366</LatitudeDegrees><LongitudeDegrees>60.6052052624816</LongitudeDegrees></Position></Trackpoint><Trackpoint><Time>2026-06-13T09:19:15.000Z</Time><Position><LatitudeDegrees>56.85380245309195</LatitudeDegrees><LongitudeDegrees>60.6052242144753</LongitudeDegrees></Position></Trackpoint><Trackpoint><Time>2026-06-13T09:19:16.000Z</Time><Position><LatitudeDegrees>56.85379856477891</LatitudeDegrees><LongitudeDegrees>60.6052428416567</LongitudeDegrees></Position></Trackpoint><Trackpoint><Time>2026-06-13T09:19:17.000Z</Time><Position><LatitudeDegrees>56.85379394207175</LatitudeDegrees><LongitudeDegrees>60.60526139235212</LongitudeDegrees></Position></Trackpoint><Trackpoint><Time>2026-06-13T09:19:18.000Z</Time><Position><LatitudeDegrees>56.853788631012826</LatitudeDegrees><LongitudeDegrees>60.6052804682581</LongitudeDegrees></Position></Trackpoint><Trackpoint><Time>2026-06-13T09:19:19.000Z</Time><Position><LatitudeDegrees>56.8537846973553</LatitudeDegrees><LongitudeDegrees>60.60530122898461</LongitudeDegrees></Position></Trackpoint><Trackpoint><Time>2026-06-13T09:19:20.000Z</Time><Position><LatitudeDegrees>56.85378183583659</LatitudeDegrees><LongitudeDegrees>60.605322956632286</LongitudeDegrees></Position></Trackpoint><Trackpoint><Time>2026-06-13T09:19:21.000Z</Time><Position><LatitudeDegrees>56.85377929352138</LatitudeDegrees><LongitudeDegrees>60.60534523144337</LongitudeDegrees></Position></Trackpoint><Trackpoint><Time>2026-06-13T09:19:22.000Z</Time><Position><LatitudeDegrees>56.853776229745876</LatitudeDegrees><LongitudeDegrees>60.60536829993065</LongitudeDegrees></Position></Trackpoint><Trackpoint><Time>2026-06-13T09:19:23.000Z</Time><Position><LatitudeDegrees>56.85377285483597</LatitudeDegrees><LongitudeDegrees>60.60539167213855</LongitudeDegrees></Position></Trackpoint><Trackpoint><Time>2026-06-13T09:19:24.000Z</Time><Position><LatitudeDegrees>56.85376880573387</LatitudeDegrees><LongitudeDegrees>60.60541510730494</LongitudeDegrees></Position></Trackpoint><Trackpoint><Time>2026-06-13T09:19:25.000Z</Time><Position><LatitudeDegrees>56.85376352984122</LatitudeDegrees><LongitudeDegrees>60.605438008584706</LongitudeDegrees></Position></Trackpoint><Trackpoint><Time>2026-06-13T09:19:26.000Z</Time><Position><LatitudeDegrees>56.8537574466469</LatitudeDegrees><LongitudeDegrees>60.605460688311275</LongitudeDegrees></Position></Trackpoint><Trackpoint><Time>2026-06-13T09:19:27.000Z</Time><Position><LatitudeDegrees>56.85375230135824</LatitudeDegrees><LongitudeDegrees>60.60548330355</LongitudeDegrees></Position></Trackpoint><Trackpoint><Time>2026-06-13T09:19:28.000Z</Time><Position><LatitudeDegrees>56.8537477131098</LatitudeDegrees><LongitudeDegrees>60.60550592726254</LongitudeDegrees></Position></Trackpoint><Trackpoint><Time>2026-06-13T09:19:29.000Z</Time><Position><LatitudeDegrees>56.85374492238507</LatitudeDegrees><LongitudeDegrees>60.605528588409335</LongitudeDegrees></Position></Trackpoint><Trackpoint><Time>2026-06-13T09:19:30.000Z</Time><Position><LatitudeDegrees>56.85374420934708</LatitudeDegrees><LongitudeDegrees>60.60555178372326</LongitudeDegrees></Position></Trackpoint><Trackpoint><Time>2026-06-13T09:19:31.000Z</Time><Position><LatitudeDegrees>56.85374542270836</LatitudeDegrees><LongitudeDegrees>60.60557466999468</LongitudeDegrees></Position></Trackpoint><Trackpoint><Time>2026-06-13T09:19:32.000Z</Time><Position><LatitudeDegrees>56.85374874252387</LatitudeDegrees><LongitudeDegrees>60.60559742923752</LongitudeDegrees></Position></Trackpoint><Trackpoint><Time>2026-06-13T09:19:33.000Z</Time><Position><LatitudeDegrees>56.85375250375419</LatitudeDegrees><LongitudeDegrees>60.605621131936346</LongitudeDegrees></Position></Trackpoint><Trackpoint><Time>2026-06-13T09:19:34.000Z</Time><Position><LatitudeDegrees>56.85375645363624</LatitudeDegrees><LongitudeDegrees>60.605645608250626</LongitudeDegrees></Position></Trackpoint><Trackpoint><Time>2026-06-13T09:19:35.000Z</Time><Position><LatitudeDegrees>56.85376095347122</LatitudeDegrees><LongitudeDegrees>60.605669709720765</LongitudeDegrees></Position></Trackpoint><Trackpoint><Time>2026-06-13T09:19:36.000Z</Time><Position><LatitudeDegrees>56.853766081469395</LatitudeDegrees><LongitudeDegrees>60.60569301148347</LongitudeDegrees></Position></Trackpoint><Trackpoint><Time>2026-06-13T09:19:37.000Z</Time><Position><LatitudeDegrees>56.85377227882717</LatitudeDegrees><LongitudeDegrees>60.60571642042836</LongitudeDegrees></Position></Trackpoint><Trackpoint><Time>2026-06-13T09:19:38.000Z</Time><Position><LatitudeDegrees>56.85377861077202</LatitudeDegrees><LongitudeDegrees>60.60574078589676</LongitudeDegrees></Position></Trackpoint><Trackpoint><Time>2026-06-13T09:19:39.000Z</Time><Position><LatitudeDegrees>56.85378369583816</LatitudeDegrees><LongitudeDegrees>60.60576584529678</LongitudeDegrees></Position></Trackpoint><Trackpoint><Time>2026-06-13T09:19:40.000Z</Time><Position><LatitudeDegrees>56.85378810434815</LatitudeDegrees><LongitudeDegrees>60.60579091180865</LongitudeDegrees></Position></Trackpoint><Trackpoint><Time>2026-06-13T09:19:41.000Z</Time><Position><LatitudeDegrees>56.85379460606788</LatitudeDegrees><LongitudeDegrees>60.605815212053656</LongitudeDegrees></Position></Trackpoint><Trackpoint><Time>2026-06-13T09:19:42.000Z</Time><Position><LatitudeDegrees>56.85380309379778</LatitudeDegrees><LongitudeDegrees>60.60583803626724</LongitudeDegrees></Position></Trackpoint><Trackpoint><Time>2026-06-13T09:19:43.000Z</Time><Position><LatitudeDegrees>56.85381228926685</LatitudeDegrees><LongitudeDegrees>60.60586026081231</LongitudeDegrees></Position></Trackpoint><Trackpoint><Time>2026-06-13T09:19:44.000Z</Time><Position><LatitudeDegrees>56.85382108559259</LatitudeDegrees><LongitudeDegrees>60.60588232357089</LongitudeDegrees></Position></Trackpoint><Trackpoint><Time>2026-06-13T09:19:45.000Z</Time><Position><LatitudeDegrees>56.85382907815333</LatitudeDegrees><LongitudeDegrees>60.60590393603183</LongitudeDegrees></Position></Trackpoint><Trackpoint><Time>2026-06-13T09:19:46.000Z</Time><Position><LatitudeDegrees>56.853835713863766</LatitudeDegrees><LongitudeDegrees>60.60592552678226</LongitudeDegrees></Position></Trackpoint><Trackpoint><Time>2026-06-13T09:19:47.000Z</Time><Position><LatitudeDegrees>56.85384093909462</LatitudeDegrees><LongitudeDegrees>60.605947275115156</LongitudeDegrees></Position></Trackpoint><Trackpoint><Time>2026-06-13T09:19:48.000Z</Time><Position><LatitudeDegrees>56.8538458920137</LatitudeDegrees><LongitudeDegrees>60.60596825542264</LongitudeDegrees></Position></Trackpoint><Trackpoint><Time>2026-06-13T09:19:49.000Z</Time><Position><LatitudeDegrees>56.85385058669667</LatitudeDegrees><LongitudeDegrees>60.605987695472805</LongitudeDegrees></Position></Trackpoint><Trackpoint><Time>2026-06-13T09:19:50.000Z</Time><Position><LatitudeDegrees>56.85385506208457</LatitudeDegrees><LongitudeDegrees>60.60600547492449</LongitudeDegrees></Position></Trackpoint><Trackpoint><Time>2026-06-13T09:19:51.000Z</Time><Position><LatitudeDegrees>56.85385887275018</LatitudeDegrees><LongitudeDegrees>60.60602322618435</LongitudeDegrees></Position></Trackpoint><Trackpoint><Time>2026-06-13T09:19:52.000Z</Time><Position><LatitudeDegrees>56.853862410178444</LatitudeDegrees><LongitudeDegrees>60.60604064592902</LongitudeDegrees></Position></Trackpoint><Trackpoint><Time>2026-06-13T09:19:53.000Z</Time><Position><LatitudeDegrees>56.853865381054895</LatitudeDegrees><LongitudeDegrees>60.60605814139992</LongitudeDegrees></Position></Trackpoint><Trackpoint><Time>2026-06-13T09:19:54.000Z</Time><Position><LatitudeDegrees>56.853866758077686</LatitudeDegrees><LongitudeDegrees>60.606073912150826</LongitudeDegrees></Position></Trackpoint><Trackpoint><Time>2026-06-13T09:19:55.000Z</Time><Position><LatitudeDegrees>56.853865833127735</LatitudeDegrees><LongitudeDegrees>60.606088906894996</LongitudeDegrees></Position></Trackpoint><Trackpoint><Time>2026-06-13T09:19:56.000Z</Time><Position><LatitudeDegrees>56.8538621204221</LatitudeDegrees><LongitudeDegrees>60.606103126332854</LongitudeDegrees></Position></Trackpoint><Trackpoint><Time>2026-06-13T09:19:57.000Z</Time><Position><LatitudeDegrees>56.853856267314</LatitudeDegrees><LongitudeDegrees>60.60611618065163</LongitudeDegrees></Position></Trackpoint><Trackpoint><Time>2026-06-13T09:19:58.000Z</Time><Position><LatitudeDegrees>56.85384930473312</LatitudeDegrees><LongitudeDegrees>60.60612903807595</LongitudeDegrees></Position></Trackpoint><Trackpoint><Time>2026-06-13T09:19:59.000Z</Time><Position><LatitudeDegrees>56.853842289260434</LatitudeDegrees><LongitudeDegrees>60.606142122624085</LongitudeDegrees></Position></Trackpoint><Trackpoint><Time>2026-06-13T09:20:00.000Z</Time><Position><LatitudeDegrees>56.85383517320921</LatitudeDegrees><LongitudeDegrees>60.60615606938054</LongitudeDegrees></Position></Trackpoint><Trackpoint><Time>2026-06-13T09:20:01.000Z</Time><Position><LatitudeDegrees>56.85382794984955</LatitudeDegrees><LongitudeDegrees>60.60617200845238</LongitudeDegrees></Position></Trackpoint><Trackpoint><Time>2026-06-13T09:20:02.000Z</Time><Position><LatitudeDegrees>56.85382160940398</LatitudeDegrees><LongitudeDegrees>60.60619014954474</LongitudeDegrees></Position></Trackpoint><Trackpoint><Time>2026-06-13T09:20:03.000Z</Time><Position><LatitudeDegrees>56.85381644635846</LatitudeDegrees><LongitudeDegrees>60.60620980678454</LongitudeDegrees></Position></Trackpoint><Trackpoint><Time>2026-06-13T09:20:04.000Z</Time><Position><LatitudeDegrees>56.85381243087462</LatitudeDegrees><LongitudeDegrees>60.60623001350055</LongitudeDegrees></Position></Trackpoint><Trackpoint><Time>2026-06-13T09:20:05.000Z</Time><Position><LatitudeDegrees>56.85381038259746</LatitudeDegrees><LongitudeDegrees>60.60625030106087</LongitudeDegrees></Position></Trackpoint><Trackpoint><Time>2026-06-13T09:20:07.000Z</Time><Position><LatitudeDegrees>56.85381087620674</LatitudeDegrees><LongitudeDegrees>60.60627046609101</LongitudeDegrees></Position></Trackpoint><Trackpoint><Time>2026-06-13T09:20:08.000Z</Time><Position><LatitudeDegrees>56.853815290959325</LatitudeDegrees><LongitudeDegrees>60.60628750289743</LongitudeDegrees></Position></Trackpoint><Trackpoint><Time>2026-06-13T09:20:09.000Z</Time><Position><LatitudeDegrees>56.85382320199577</LatitudeDegrees><LongitudeDegrees>60.60629910630622</LongitudeDegrees></Position></Trackpoint><Trackpoint><Time>2026-06-13T09:20:10.000Z</Time><Position><LatitudeDegrees>56.85383251677019</LatitudeDegrees><LongitudeDegrees>60.60630551394886</LongitudeDegrees></Position></Trackpoint><Trackpoint><Time>2026-06-13T09:20:11.000Z</Time><Position><LatitudeDegrees>56.85384268294538</LatitudeDegrees><LongitudeDegrees>60.6063084697799</LongitudeDegrees></Position></Trackpoint><Trackpoint><Time>2026-06-13T09:20:12.000Z</Time><Position><LatitudeDegrees>56.853852874163834</LatitudeDegrees><LongitudeDegrees>60.606308155831506</LongitudeDegrees></Position></Trackpoint><Trackpoint><Time>2026-06-13T09:20:14.000Z</Time><Position><LatitudeDegrees>56.853862257279104</LatitudeDegrees><LongitudeDegrees>60.60630702518433</LongitudeDegrees></Position></Trackpoint><Trackpoint><Time>2026-06-13T09:20:15.000Z</Time><Position><LatitudeDegrees>56.8538676552288</LatitudeDegrees><LongitudeDegrees>60.60630717214207</LongitudeDegrees></Position></Trackpoint><Trackpoint><Time>2026-06-13T09:20:16.000Z</Time><Position><LatitudeDegrees>56.85386925030389</LatitudeDegrees><LongitudeDegrees>60.60630831600893</LongitudeDegrees></Position></Trackpoint><Trackpoint><Time>2026-06-13T09:20:17.000Z</Time><Position><LatitudeDegrees>56.85386809528169</LatitudeDegrees><LongitudeDegrees>60.60631070284387</LongitudeDegrees></Position></Trackpoint><Trackpoint><Time>2026-06-13T09:20:18.000Z</Time><Position><LatitudeDegrees>56.85386546631245</LatitudeDegrees><LongitudeDegrees>60.606313784838484</LongitudeDegrees></Position></Trackpoint><Trackpoint><Time>2026-06-13T09:20:19.000Z</Time><Position><LatitudeDegrees>56.85386403657875</LatitudeDegrees><LongitudeDegrees>60.60631626794307</LongitudeDegrees></Position></Trackpoint><Trackpoint><Time>2026-06-13T09:20:20.000Z</Time><Position><LatitudeDegrees>56.85386426345563</LatitudeDegrees><LongitudeDegrees>60.60631769609144</LongitudeDegrees></Position></Trackpoint><Trackpoint><Time>2026-06-13T09:20:21.000Z</Time><Position><LatitudeDegrees>56.853866122681914</LatitudeDegrees><LongitudeDegrees>60.606318506472974</LongitudeDegrees></Position></Trackpoint><Trackpoint><Time>2026-06-13T09:20:22.000Z</Time><Position><LatitudeDegrees>56.853868905145866</LatitudeDegrees><LongitudeDegrees>60.606318958426286</LongitudeDegrees></Position></Trackpoint><Trackpoint><Time>2026-06-13T09:20:33.000Z</Time><Position><LatitudeDegrees>56.8538781029127</LatitudeDegrees><LongitudeDegrees>60.60631007950366</LongitudeDegrees></Position></Trackpoint><Trackpoint><Time>2026-06-13T09:20:34.000Z</Time><Position><LatitudeDegrees>56.85387353769985</LatitudeDegrees><LongitudeDegrees>60.60631092660697</LongitudeDegrees></Position></Trackpoint><Trackpoint><Time>2026-06-13T09:20:35.000Z</Time><Position><LatitudeDegrees>56.85387516273937</LatitudeDegrees><LongitudeDegrees>60.60630937487263</LongitudeDegrees></Position></Trackpoint><Trackpoint><Time>2026-06-13T09:20:36.000Z</Time><Position><LatitudeDegrees>56.853876688479716</LatitudeDegrees><LongitudeDegrees>60.606309536444314</LongitudeDegrees></Position></Trackpoint><Trackpoint><Time>2026-06-13T09:20:37.000Z</Time><Position><LatitudeDegrees>56.85387650866703</LatitudeDegrees><LongitudeDegrees>60.60631038287507</LongitudeDegrees></Position></Trackpoint><Trackpoint><Time>2026-06-13T09:20:38.000Z</Time><Position><LatitudeDegrees>56.85387418069755</LatitudeDegrees><LongitudeDegrees>60.60631189232615</LongitudeDegrees></Position></Trackpoint><Trackpoint><Time>2026-06-13T09:20:39.000Z</Time><Position><LatitudeDegrees>56.85386930839436</LatitudeDegrees><LongitudeDegrees>60.60631299148472</LongitudeDegrees></Position></Trackpoint><Trackpoint><Time>2026-06-13T09:20:40.000Z</Time><Position><LatitudeDegrees>56.8538630343812</LatitudeDegrees><LongitudeDegrees>60.60631524942768</LongitudeDegrees></Position></Trackpoint><Trackpoint><Time>2026-06-13T09:20:41.000Z</Time><Position><LatitudeDegrees>56.853857477967836</LatitudeDegrees><LongitudeDegrees>60.60631769479313</LongitudeDegrees></Position></Trackpoint><Trackpoint><Time>2026-06-13T09:20:42.000Z</Time><Position><LatitudeDegrees>56.85385341985386</LatitudeDegrees><LongitudeDegrees>60.60631941387583</LongitudeDegrees></Position></Trackpoint><Trackpoint><Time>2026-06-13T09:20:43.000Z</Time><Position><LatitudeDegrees>56.85385147886357</LatitudeDegrees><LongitudeDegrees>60.60632061320943</LongitudeDegrees></Position></Trackpoint><Trackpoint><Time>2026-06-13T09:20:54.000Z</Time><Position><LatitudeDegrees>56.85383825695186</LatitudeDegrees><LongitudeDegrees>60.606331133614184</LongitudeDegrees></Position></Trackpoint><Trackpoint><Time>2026-06-13T09:20:55.000Z</Time><Position><LatitudeDegrees>56.85384048820836</LatitudeDegrees><LongitudeDegrees>60.606331121569916</LongitudeDegrees></Position></Trackpoint><Trackpoint><Time>2026-06-13T09:20:56.000Z</Time><Position><LatitudeDegrees>56.85383695876014</LatitudeDegrees><LongitudeDegrees>60.60633402991715</LongitudeDegrees></Position></Trackpoint><Trackpoint><Time>2026-06-13T09:20:57.000Z</Time><Position><LatitudeDegrees>56.853833920974154</LatitudeDegrees><LongitudeDegrees>60.60633775996771</LongitudeDegrees></Position></Trackpoint><Trackpoint><Time>2026-06-13T09:20:58.000Z</Time><Position><LatitudeDegrees>56.853832944398164</LatitudeDegrees><LongitudeDegrees>60.606341839287374</LongitudeDegrees></Position></Trackpoint><Trackpoint><Time>2026-06-13T09:21:12.000Z</Time><Position><LatitudeDegrees>56.853824737948685</LatitudeDegrees><LongitudeDegrees>60.60633439952212</LongitudeDegrees></Position></Trackpoint><Trackpoint><Time>2026-06-13T09:21:13.000Z</Time><Position><LatitudeDegrees>56.85382803021418</LatitudeDegrees><LongitudeDegrees>60.606335293855054</LongitudeDegrees></Position></Trackpoint><Trackpoint><Time>2026-06-13T09:21:14.000Z</Time><Position><LatitudeDegrees>56.8538213402826</LatitudeDegrees><LongitudeDegrees>60.60632140974473</LongitudeDegrees></Position></Trackpoint><Trackpoint><Time>2026-06-13T09:21:29.000Z</Time><Position><LatitudeDegrees>56.85382470217457</LatitudeDegrees><LongitudeDegrees>60.606321162170524</LongitudeDegrees></Position></Trackpoint><Trackpoint><Time>2026-06-13T09:21:30.000Z</Time><Position><LatitudeDegrees>56.85383097169267</LatitudeDegrees><LongitudeDegrees>60.60631887912515</LongitudeDegrees></Position></Trackpoint><Trackpoint><Time>2026-06-13T09:21:31.000Z</Time><Position><LatitudeDegrees>56.853838613206264</LatitudeDegrees><LongitudeDegrees>60.60631507160904</LongitudeDegrees></Position></Trackpoint><Trackpoint><Time>2026-06-13T09:21:32.000Z</Time><Position><LatitudeDegrees>56.85384632858727</LatitudeDegrees><LongitudeDegrees>60.60631014573274</LongitudeDegrees></Position></Trackpoint><Trackpoint><Time>2026-06-13T09:21:33.000Z</Time><Position><LatitudeDegrees>56.85385210491062</LatitudeDegrees><LongitudeDegrees>60.60630588111781</LongitudeDegrees></Position></Trackpoint><Trackpoint><Time>2026-06-13T09:21:34.000Z</Time><Position><LatitudeDegrees>56.85385487245116</LatitudeDegrees><LongitudeDegrees>60.60630243618923</LongitudeDegrees></Position></Trackpoint><Trackpoint><Time>2026-06-13T09:21:35.000Z</Time><Position><LatitudeDegrees>56.85385506644372</LatitudeDegrees><LongitudeDegrees>60.60629928137557</LongitudeDegrees></Position></Trackpoint><Trackpoint><Time>2026-06-13T09:21:36.000Z</Time><Position><LatitudeDegrees>56.85385319644352</LatitudeDegrees><LongitudeDegrees>60.60629567173523</LongitudeDegrees></Position></Trackpoint><Trackpoint><Time>2026-06-13T09:21:37.000Z</Time><Position><LatitudeDegrees>56.85385071643396</LatitudeDegrees><LongitudeDegrees>60.60629184846335</LongitudeDegrees></Position></Trackpoint><Trackpoint><Time>2026-06-13T09:21:38.000Z</Time><Position><LatitudeDegrees>56.8538487931183</LatitudeDegrees><LongitudeDegrees>60.606286469479556</LongitudeDegrees></Position></Trackpoint><Trackpoint><Time>2026-06-13T09:21:39.000Z</Time><Position><LatitudeDegrees>56.853847835533024</LatitudeDegrees><LongitudeDegrees>60.606280160964914</LongitudeDegrees></Position></Trackpoint><Trackpoint><Time>2026-06-13T09:21:40.000Z</Time><Position><LatitudeDegrees>56.85384739857235</LatitudeDegrees><LongitudeDegrees>60.60627378971615</LongitudeDegrees></Position></Trackpoint><Trackpoint><Time>2026-06-13T09:21:41.000Z</Time><Position><LatitudeDegrees>56.853846933915406</LatitudeDegrees><LongitudeDegrees>60.606256849515106</LongitudeDegrees></Position></Trackpoint><Trackpoint><Time>2026-06-13T09:21:42.000Z</Time><Position><LatitudeDegrees>56.853848284452845</LatitudeDegrees><LongitudeDegrees>60.606267918779366</LongitudeDegrees></Position></Trackpoint><Trackpoint><Time>2026-06-13T09:21:57.000Z</Time><Position><LatitudeDegrees>56.853846590632195</LatitudeDegrees><LongitudeDegrees>60.606269174333164</LongitudeDegrees></Position></Trackpoint><Trackpoint><Time>2026-06-13T09:21:58.000Z</Time><Position><LatitudeDegrees>56.85384454141452</LatitudeDegrees><LongitudeDegrees>60.606274672496866</LongitudeDegrees></Position></Trackpoint><Trackpoint><Time>2026-06-13T09:21:59.000Z</Time><Position><LatitudeDegrees>56.85384260884648</LatitudeDegrees><LongitudeDegrees>60.60628268105967</LongitudeDegrees></Position></Trackpoint><Trackpoint><Time>2026-06-13T09:22:00.000Z</Time><Position><LatitudeDegrees>56.85384195158207</LatitudeDegrees><LongitudeDegrees>60.606293143654725</LongitudeDegrees></Position></Trackpoint><Trackpoint><Time>2026-06-13T09:22:01.000Z</Time><Position><LatitudeDegrees>56.85384337272097</LatitudeDegrees><LongitudeDegrees>60.60630229482262</LongitudeDegrees></Position></Trackpoint><Trackpoint><Time>2026-06-13T09:22:02.000Z</Time><Position><LatitudeDegrees>56.8538469362465</LatitudeDegrees><LongitudeDegrees>60.606308752141295</LongitudeDegrees></Position></Trackpoint><Trackpoint><Time>2026-06-13T09:22:03.000Z</Time><Position><LatitudeDegrees>56.85385190392641</LatitudeDegrees><LongitudeDegrees>60.60631278164533</LongitudeDegrees></Position></Trackpoint><Trackpoint><Time>2026-06-13T09:22:04.000Z</Time><Position><LatitudeDegrees>56.85385681228973</LatitudeDegrees><LongitudeDegrees>60.60631480450298</LongitudeDegrees></Position></Trackpoint><Trackpoint><Time>2026-06-13T09:22:05.000Z</Time><Position><LatitudeDegrees>56.853860087022255</LatitudeDegrees><LongitudeDegrees>60.60631427249415</LongitudeDegrees></Position></Trackpoint><Trackpoint><Time>2026-06-13T09:22:06.000Z</Time><Position><LatitudeDegrees>56.853861289442946</LatitudeDegrees><LongitudeDegrees>60.60631226697802</LongitudeDegrees></Position></Trackpoint><Trackpoint><Time>2026-06-13T09:22:07.000Z</Time><Position><LatitudeDegrees>56.853860504866404</LatitudeDegrees><LongitudeDegrees>60.60630991202741</LongitudeDegrees></Position></Trackpoint><Trackpoint><Time>2026-06-13T09:22:08.000Z</Time><Position><LatitudeDegrees>56.85385851306673</LatitudeDegrees><LongitudeDegrees>60.606307715422375</LongitudeDegrees></Position></Trackpoint><Trackpoint><Time>2026-06-13T09:22:09.000Z</Time><Position><LatitudeDegrees>56.853853645844175</LatitudeDegrees><LongitudeDegrees>60.606301186397054</LongitudeDegrees></Position></Trackpoint><Trackpoint><Time>2026-06-13T09:22:11.000Z</Time><Position><LatitudeDegrees>56.853857302152534</LatitudeDegrees><LongitudeDegrees>60.60630371149431</LongitudeDegrees></Position></Trackpoint></Track></Lap></Activity></Activities></TrainingCenterDatabase>