<?xml version='1.0' encoding='UTF-8' standalone='yes' ?><TrainingCenterDatabase creator="Mi Fitness" version="1.0" xmlns="http://www.garmin.com/xmlschemas/TrainingCenterDatabase/v2" xmlns:xsi="http://www.w3.org/2001/XMLSchema-instance" xsi:schemaLocation="http://www.garmin.com/xmlschemas/TrainingCenterDatabase/v2 http://www.garmin.com/xmlschemas/TrainingCenterDatabasev2.xsd"><Activities><Activity Sport=""><Id>2026-07-05T20:53:05.000Z</Id><Calories>295</Calories><Lap><TotalTimeSeconds>1795</TotalTimeSeconds><DistanceMeters>556</DistanceMeters><Calories>200</Calories><HeartRateBpm>116</HeartRateBpm><AverageSpeed>1.1150975</AverageSpeed><Steps>669</Steps></Lap></Activity></Activities></TrainingCenterDatabase>