<?xml version='1.0' encoding='UTF-8' standalone='yes' ?><TrainingCenterDatabase creator="Mi Fitness" version="1.0" xmlns="http://www.garmin.com/xmlschemas/TrainingCenterDatabase/v2" xmlns:xsi="http://www.w3.org/2001/XMLSchema-instance" xsi:schemaLocation="http://www.garmin.com/xmlschemas/TrainingCenterDatabase/v2 http://www.garmin.com/xmlschemas/TrainingCenterDatabasev2.xsd"><Activities><Activity Sport="Тест лактатного порога"><Id>2026-08-03T20:58:12.000Z</Id><Calories>85</Calories><Lap><TotalTimeSeconds>792</TotalTimeSeconds><DistanceMeters>300</DistanceMeters><Calories>79</Calories><HeartRateBpm>92</HeartRateBpm></Lap></Activity></Activities></TrainingCenterDatabase>