<?xml version='1.0' encoding='UTF-8' standalone='yes' ?><TrainingCenterDatabase creator="Mi Fitness" version="1.0" xmlns="http://www.garmin.com/xmlschemas/TrainingCenterDatabase/v2" xmlns:xsi="http://www.w3.org/2001/XMLSchema-instance" xsi:schemaLocation="http://www.garmin.com/xmlschemas/TrainingCenterDatabase/v2 http://www.garmin.com/xmlschemas/TrainingCenterDatabasev2.xsd"><Activities><Activity Sport=""><Id>2026-08-01T20:41:11.000Z</Id><Calories>181</Calories><Lap><TotalTimeSeconds>1326</TotalTimeSeconds><DistanceMeters>1409</DistanceMeters><Calories>110</Calories><HeartRateBpm>97</HeartRateBpm><AverageSpeed>3.8253393</AverageSpeed><Steps>1693</Steps></Lap></Activity></Activities></TrainingCenterDatabase>