<?xml version='1.0' encoding='UTF-8' standalone='yes' ?><TrainingCenterDatabase creator="Mi Fitness" version="1.0" xmlns="http://www.garmin.com/xmlschemas/TrainingCenterDatabase/v2" xmlns:xsi="http://www.w3.org/2001/XMLSchema-instance" xsi:schemaLocation="http://www.garmin.com/xmlschemas/TrainingCenterDatabase/v2 http://www.garmin.com/xmlschemas/TrainingCenterDatabasev2.xsd"><Activities><Activity Sport=""><Id>2026-05-12T15:05:14.000Z</Id><Calories>153</Calories><Lap><TotalTimeSeconds>1136</TotalTimeSeconds><Calories>94</Calories><HeartRateBpm>112</HeartRateBpm></Lap></Activity></Activities></TrainingCenterDatabase>