<?xml version='1.0' encoding='UTF-8' standalone='yes' ?><TrainingCenterDatabase creator="Mi Fitness" version="1.0" xmlns="http://www.garmin.com/xmlschemas/TrainingCenterDatabase/v2" xmlns:xsi="http://www.w3.org/2001/XMLSchema-instance" xsi:schemaLocation="http://www.garmin.com/xmlschemas/TrainingCenterDatabase/v2 http://www.garmin.com/xmlschemas/TrainingCenterDatabasev2.xsd"><Activities><Activity Sport=""><Id>2026-05-12T14:40:44.000Z</Id><Calories>80</Calories><Lap><TotalTimeSeconds>606</TotalTimeSeconds><Calories>49</Calories><HeartRateBpm>120</HeartRateBpm></Lap></Activity></Activities></TrainingCenterDatabase>