<?xml version='1.0' encoding='UTF-8' standalone='yes' ?><TrainingCenterDatabase creator="Mi Fitness" version="1.0" xmlns="http://www.garmin.com/xmlschemas/TrainingCenterDatabase/v2" xmlns:xsi="http://www.w3.org/2001/XMLSchema-instance" xsi:schemaLocation="http://www.garmin.com/xmlschemas/TrainingCenterDatabase/v2 http://www.garmin.com/xmlschemas/TrainingCenterDatabasev2.xsd"><Activities><Activity Sport="Тест лактатного порога"><Id>2026-07-25T18:37:52.000Z</Id><Calories>176</Calories><Lap><TotalTimeSeconds>530</TotalTimeSeconds><DistanceMeters>156</DistanceMeters><Calories>165</Calories><HeartRateBpm>116</HeartRateBpm></Lap></Activity></Activities></TrainingCenterDatabase>