<?xml version='1.0' encoding='UTF-8' standalone='yes' ?><TrainingCenterDatabase creator="Mi Fitness" version="1.0" xmlns="http://www.garmin.com/xmlschemas/TrainingCenterDatabase/v2" xmlns:xsi="http://www.w3.org/2001/XMLSchema-instance" xsi:schemaLocation="http://www.garmin.com/xmlschemas/TrainingCenterDatabase/v2 http://www.garmin.com/xmlschemas/TrainingCenterDatabasev2.xsd"><Activities><Activity Sport="Тест лактатного порога"><Id>2026-08-03T22:21:23.000Z</Id><Calories>52</Calories><Lap><TotalTimeSeconds>166</TotalTimeSeconds><DistanceMeters>100</DistanceMeters><Calories>49</Calories><HeartRateBpm>105</HeartRateBpm></Lap></Activity></Activities></TrainingCenterDatabase>